[
    {
        "index": 1,
        "url": "https://local.pokemon.jp/en/manhole/desc/1/?is_modal=1",
        "placeName": "31°14'13.9\"N 130°38'34.3\"E",
        "address": "1-chōme-1 Yunohama, Ibusuki, Kagoshima 891-0406, Japan",
        "imagePath": "image1.png"
    },
    {
        "index": 2,
        "url": "https://local.pokemon.jp/en/manhole/desc/2/?is_modal=1",
        "placeName": "31°13'40.8\"N 130°39'10.9\"E",
        "address": "Japan, 〒891-0406 Kagoshima, Ibusuki, Yunohama, 5-chōme−26−29 吟松",
        "imagePath": "image2.png"
    },
    {
        "index": 3,
        "url": "https://local.pokemon.jp/en/manhole/desc/3/?is_modal=1",
        "placeName": "31°15'19.0\"N 130°38'51.5\"E",
        "address": "9227-6 Higashikata, Ibusuki, Kagoshima 891-0404, Japan",
        "imagePath": "image3.png"
    },
    {
        "index": 4,
        "url": "https://local.pokemon.jp/en/manhole/desc/4/?is_modal=1",
        "placeName": "31°13'45.9\"N 130°39'07.1\"E",
        "address": "5-chōme-26-41 Yunohama, Ibusuki, Kagoshima 891-0406, Japan",
        "imagePath": "image4.png"
    },
    {
        "index": 5,
        "url": "https://local.pokemon.jp/en/manhole/desc/5/?is_modal=1",
        "placeName": "31°14'17.8\"N 130°38'42.0\"E",
        "address": "1 Chome-7-22 Minato, Ibusuki, Kagoshima 891-0405, Japan",
        "imagePath": "image5.png"
    },
    {
        "index": 6,
        "url": "https://local.pokemon.jp/en/manhole/desc/6/?is_modal=1",
        "placeName": "31°14'12.6\"N 130°38'31.9\"E",
        "address": "Junicho, Ibusuki, Kagoshima 891-0403, Japan",
        "imagePath": "image6.png"
    },
    {
        "index": 7,
        "url": "https://local.pokemon.jp/en/manhole/desc/7/?is_modal=1",
        "placeName": "31°15'50.0\"N 130°39'46.5\"E",
        "address": "Higashikata, Ibusuki, Kagoshima 891-0404, Japan",
        "imagePath": "image7.png"
    },
    {
        "index": 8,
        "url": "https://local.pokemon.jp/en/manhole/desc/8/?is_modal=1",
        "placeName": "31°13'51.8\"N 130°38'40.6\"E",
        "address": "Junicho, Ibusuki, Kagoshima 891-0403, Japan",
        "imagePath": "image8.png"
    },
    {
        "index": 9,
        "url": "https://local.pokemon.jp/en/manhole/desc/9/?is_modal=1",
        "placeName": "31°14'07.6\"N 130°38'29.0\"E",
        "address": "2190 Jūnichō, Ibusuki, Kagoshima 891-0403, Japan",
        "imagePath": "image9.png"
    },
    {
        "index": 10,
        "url": "https://local.pokemon.jp/en/manhole/desc/10/?is_modal=1",
        "placeName": "40°24'22.0\"N 141°43'10.3\"E",
        "address": "Dai 22 Chiwari-131-3 Taneichi, Hirono, Kunohe District, Iwate 028-7915, Japan",
        "imagePath": "image10.png"
    },
    {
        "index": 11,
        "url": "https://local.pokemon.jp/en/manhole/desc/11/?is_modal=1",
        "placeName": "40°11'23.1\"N 141°45'57.0\"E",
        "address": "2 Chome-2 Nakamachi, Kuji, Iwate 028-0056, Japan",
        "imagePath": "image11.png"
    },
    {
        "index": 12,
        "url": "https://local.pokemon.jp/en/manhole/desc/12/?is_modal=1",
        "placeName": "40°04'57.8\"N 141°49'43.2\"E",
        "address": "Dai 5 Chiwari Tamagawa, Noda, Kunohe District, Iwate 028-8202, Japan",
        "imagePath": "image12.png"
    },
    {
        "index": 13,
        "url": "https://local.pokemon.jp/en/manhole/desc/13/?is_modal=1",
        "placeName": "40°00'10.2\"N 141°53'08.7\"E",
        "address": "Dōya-5-3 Dai 9 Chiwari, Fudai, Shimohei District, Iwate 028-8332, Japan",
        "imagePath": "image13.png"
    },
    {
        "index": 14,
        "url": "https://local.pokemon.jp/en/manhole/desc/14/?is_modal=1",
        "placeName": "39°51'37.6\"N 141°47'47.5\"E",
        "address": "Iwaizumi, Shimohei District, Iwate 027-0501, Japan",
        "imagePath": "image14.png"
    },
    {
        "index": 15,
        "url": "https://local.pokemon.jp/en/manhole/desc/15/?is_modal=1",
        "placeName": "39°55'00.1\"N 141°56'19.3\"E",
        "address": "175 Matsumaesawa, Tanohata, Shimohei District, Iwate 028-8404, Japan",
        "imagePath": "image15.png"
    },
    {
        "index": 16,
        "url": "https://local.pokemon.jp/en/manhole/desc/16/?is_modal=1",
        "placeName": "39°38'22.1\"N 141°58'10.9\"E",
        "address": "1 Rinkōdōri, Miyako, Iwate 027-0004, Japan",
        "imagePath": "image16.png"
    },
    {
        "index": 17,
        "url": "https://local.pokemon.jp/en/manhole/desc/17/?is_modal=1",
        "placeName": "39°27'51.1\"N 141°57'03.8\"E",
        "address": "6-34 Kawamukaicho, Yamada, Shimohei District, Iwate 028-1342, Japan",
        "imagePath": "image17.png"
    },
    {
        "index": 18,
        "url": "https://local.pokemon.jp/en/manhole/desc/18/?is_modal=1",
        "placeName": "39°21'26.1\"N 141°54'11.4\"E",
        "address": "10 Honchō, Otsuchi, Kamihei District, Iwate 028-1116, Japan",
        "imagePath": "image18.png"
    },
    {
        "index": 19,
        "url": "https://local.pokemon.jp/en/manhole/desc/19/?is_modal=1",
        "placeName": "39°19'36.7\"N 141°53'16.3\"E",
        "address": "4-chome-900 Unosumaicho, Kamaishi, Iwate 026-0301, Japan",
        "imagePath": "image19.png"
    },
    {
        "index": 20,
        "url": "https://local.pokemon.jp/en/manhole/desc/20/?is_modal=1",
        "placeName": "39°05'09.3\"N 141°42'36.9\"E",
        "address": "Machi-11-27 Sakarichō, Ofunato, Iwate 022-0003, Japan",
        "imagePath": "image20.png"
    },
    {
        "index": 21,
        "url": "https://local.pokemon.jp/en/manhole/desc/21/?is_modal=1",
        "placeName": "39°01'00.3\"N 141°37'43.3\"E",
        "address": "Tatenooki-89-1 Takatachō, Rikuzentakata, Iwate 029-2205, Japan",
        "imagePath": "image21.png"
    },
    {
        "index": 22,
        "url": "https://local.pokemon.jp/en/manhole/desc/22/?is_modal=1",
        "placeName": "39°08'32.2\"N 141°34'28.0\"E",
        "address": "Kawamukai Setamai, Sumita, Kesen District, Iwate 029-2311, Japan",
        "imagePath": "image22.png"
    },
    {
        "index": 23,
        "url": "https://local.pokemon.jp/en/manhole/desc/23/?is_modal=1",
        "placeName": "35°27'04.2\"N 139°37'53.4\"E",
        "address": "1 Chome Sakuragicho, Naka Ward, Yokohama, Kanagawa 231-0062, Japan",
        "imagePath": "image23.png"
    },
    {
        "index": 24,
        "url": "https://local.pokemon.jp/en/manhole/desc/24/?is_modal=1",
        "placeName": "Not Available",
        "address": "Not Available",
        "imagePath": "image24.png"
    },
    {
        "index": 25,
        "url": "https://local.pokemon.jp/en/manhole/desc/25/?is_modal=1",
        "placeName": "Not Available",
        "address": "Not Available",
        "imagePath": "image25.png"
    },
    {
        "index": 26,
        "url": "https://local.pokemon.jp/en/manhole/desc/26/?is_modal=1",
        "placeName": "Not Available",
        "address": "Not Available",
        "imagePath": "image26.png"
    },
    {
        "index": 27,
        "url": "https://local.pokemon.jp/en/manhole/desc/27/?is_modal=1",
        "placeName": "Not Available",
        "address": "Not Available",
        "imagePath": "image27.png"
    },
    {
        "index": 28,
        "url": "https://local.pokemon.jp/en/manhole/desc/28/?is_modal=1",
        "placeName": "34°20'20.0\"N 134°02'56.6\"E",
        "address": "7-2 Minamishinmachi, Takamatsu, Kagawa 760-0051, Japan",
        "imagePath": "image28.png"
    },
    {
        "index": 29,
        "url": "https://local.pokemon.jp/en/manhole/desc/29/?is_modal=1",
        "placeName": "34°17'31.3\"N 133°47'38.2\"E",
        "address": "Hamamachi, Marugame, Kagawa 763-0022, Japan",
        "imagePath": "image29.png"
    },
    {
        "index": 30,
        "url": "https://local.pokemon.jp/en/manhole/desc/30/?is_modal=1",
        "placeName": "34°18'46.8\"N 133°51'22.7\"E",
        "address": "1-chōme-1-34 Komadomechō, Sakaide, Kagawa 762-0032, Japan",
        "imagePath": "image30.png"
    },
    {
        "index": 31,
        "url": "https://local.pokemon.jp/en/manhole/desc/31/?is_modal=1",
        "placeName": "34°13'31.1\"N 133°46'38.3\"E",
        "address": "2-chōme-2 Zentsūjichō, Zentsuji, Kagawa 765-0003, Japan",
        "imagePath": "image31.png"
    },
    {
        "index": 32,
        "url": "https://local.pokemon.jp/en/manhole/desc/32/?is_modal=1",
        "placeName": "34°07'31.0\"N 133°39'18.8\"E",
        "address": "1234-4 Kanonjicho, Kanonji, Kagawa 768-0060, Japan",
        "imagePath": "image32.png"
    },
    {
        "index": 33,
        "url": "https://local.pokemon.jp/en/manhole/desc/33/?is_modal=1",
        "placeName": "34°19'16.7\"N 134°10'23.7\"E",
        "address": "670-10 Shido, Sanuki, Kagawa 769-2101, Japan",
        "imagePath": "image33.png"
    },
    {
        "index": 34,
        "url": "https://local.pokemon.jp/en/manhole/desc/34/?is_modal=1",
        "placeName": "34°15'04.2\"N 134°20'00.5\"E",
        "address": "1176-1 Sanbonmatsu, Higashikagawa, Kagawa 769-2601, Japan",
        "imagePath": "image34.png"
    },
    {
        "index": 35,
        "url": "https://local.pokemon.jp/en/manhole/desc/35/?is_modal=1",
        "placeName": "34°16'07.7\"N 133°37'56.0\"E",
        "address": "Takumacho Awashima, Mitoyo, Kagawa 769-1108, Japan",
        "imagePath": "image35.png"
    },
    {
        "index": 36,
        "url": "https://local.pokemon.jp/en/manhole/desc/36/?is_modal=1",
        "placeName": "34°28'57.7\"N 134°11'15.0\"E",
        "address": "222-1 Ko, Tonosho, Shozu District, Kagawa 761-4101, Japan",
        "imagePath": "image36.png"
    },
    {
        "index": 37,
        "url": "https://local.pokemon.jp/en/manhole/desc/37/?is_modal=1",
        "placeName": "34°28'15.1\"N 134°14'09.1\"E",
        "address": "Murou, Shodoshima, Shozu District, Kagawa 761-4304, Japan",
        "imagePath": "image37.png"
    },
    {
        "index": 38,
        "url": "https://local.pokemon.jp/en/manhole/desc/38/?is_modal=1",
        "placeName": "34°16'06.9\"N 134°08'04.4\"E",
        "address": "310 Hikami, Miki, Kita District, Kagawa 761-0612, Japan",
        "imagePath": "image38.png"
    },
    {
        "index": 39,
        "url": "https://local.pokemon.jp/en/manhole/desc/39/?is_modal=1",
        "placeName": "34°27'21.0\"N 133°58'31.8\"E",
        "address": "Naoshima, Kagawa District, Kagawa 761-3110, Japan",
        "imagePath": "image39.png"
    },
    {
        "index": 40,
        "url": "https://local.pokemon.jp/en/manhole/desc/40/?is_modal=1",
        "placeName": "34°15'01.4\"N 133°55'01.5\"E",
        "address": "Takinomiya, Ayagawa, Ayauta District, Kagawa 761-2305, Japan",
        "imagePath": "image40.png"
    },
    {
        "index": 41,
        "url": "https://local.pokemon.jp/en/manhole/desc/41/?is_modal=1",
        "placeName": "34°11'15.9\"N 133°49'11.6\"E",
        "address": "723, Kotohira, Nakatado District, Kagawa 766-0001, Japan",
        "imagePath": "image41.png"
    },
    {
        "index": 42,
        "url": "https://local.pokemon.jp/en/manhole/desc/42/?is_modal=1",
        "placeName": "34°16'20.2\"N 133°45'26.1\"E",
        "address": "3-chōme-3 Sakaemachi, Tadotsu, Nakatado District, Kagawa 764-0011, Japan",
        "imagePath": "image42.png"
    },
    {
        "index": 43,
        "url": "https://local.pokemon.jp/en/manhole/desc/43/?is_modal=1",
        "placeName": "34°10'24.0\"N 133°52'17.0\"E",
        "address": "4314-46 Yoshino, Manno, Nakatado District, Kagawa 766-0023, Japan",
        "imagePath": "image43.png"
    },
    {
        "index": 44,
        "url": "https://local.pokemon.jp/en/manhole/desc/44/?is_modal=1",
        "placeName": "38°54'20.5\"N 141°34'28.8\"E",
        "address": "1 Minamimachikaigan, Kesennuma, Miyagi 988-0018, Japan",
        "imagePath": "image44.png"
    },
    {
        "index": 45,
        "url": "https://local.pokemon.jp/en/manhole/desc/45/?is_modal=1",
        "placeName": "38°43'01.4\"N 141°31'16.1\"E",
        "address": "Isatomae-81-3 Utatsu, Minamisanriku, Motoyoshi District, Miyagi 988-0453, Japan",
        "imagePath": "image45.png"
    },
    {
        "index": 46,
        "url": "https://local.pokemon.jp/en/manhole/desc/46/?is_modal=1",
        "placeName": "38°26'44.5\"N 141°26'46.4\"E",
        "address": "2-chome-16-5 Onagawa, Oshika District, Miyagi 986-2265, Japan",
        "imagePath": "image46.png"
    },
    {
        "index": 47,
        "url": "https://local.pokemon.jp/en/manhole/desc/47/?is_modal=1",
        "placeName": "38°26'01.8\"N 141°18'11.0\"E",
        "address": "12-5 Kokuchō, Ishinomaki, Miyagi 986-0825, Japan",
        "imagePath": "image47.png"
    },
    {
        "index": 48,
        "url": "https://local.pokemon.jp/en/manhole/desc/48/?is_modal=1",
        "placeName": "38°22'45.9\"N 141°09'24.2\"E",
        "address": "Japan, 〒981-0416 Miyagi, Higashimatsushima, Nobirugaoka, 1-chome−１５−2",
        "imagePath": "image48.png"
    },
    {
        "index": 49,
        "url": "https://local.pokemon.jp/en/manhole/desc/49/?is_modal=1",
        "placeName": "38°22'08.4\"N 141°03'40.4\"E",
        "address": "Namiuchihama Matsushima, Miyagi District, Miyagi 981-0213, Japan",
        "imagePath": "image49.png"
    },
    {
        "index": 50,
        "url": "https://local.pokemon.jp/en/manhole/desc/50/?is_modal=1",
        "placeName": "38°19'05.6\"N 141°01'23.1\"E",
        "address": "14-6 Kaigandōri, Shiogama, Miyagi 985-0002, Japan",
        "imagePath": "image50.png"
    },
    {
        "index": 51,
        "url": "https://local.pokemon.jp/en/manhole/desc/51/?is_modal=1",
        "placeName": "38°19'46.2\"N 140°58'30.9\"E",
        "address": "Japan, 〒981-0111 Miyagi, Miyagi District, Rifu, Kase, Shinmaeyachi, 県道260号",
        "imagePath": "image51.png"
    },
    {
        "index": 52,
        "url": "https://local.pokemon.jp/en/manhole/desc/52/?is_modal=1",
        "placeName": "38°18'15.5\"N 141°05'00.0\"E",
        "address": "Tateshita-184 Hanabuchihama, Shichigahama, Miyagi District, Miyagi 985-0803, Japan",
        "imagePath": "image52.png"
    },
    {
        "index": 53,
        "url": "https://local.pokemon.jp/en/manhole/desc/53/?is_modal=1",
        "placeName": "38°17'31.0\"N 141°00'25.8\"E",
        "address": "2-chōme-7 Chūō, Tagajo City, Miyagi 985-0873, Japan",
        "imagePath": "image53.png"
    },
    {
        "index": 54,
        "url": "https://local.pokemon.jp/en/manhole/desc/54/?is_modal=1",
        "placeName": "38°15'30.9\"N 140°52'21.6\"E",
        "address": "2 Chome-3-28 Ichibancho, Aoba Ward, Sendai, Miyagi 980-0811, Japan",
        "imagePath": "image54.png"
    },
    {
        "index": 55,
        "url": "https://local.pokemon.jp/en/manhole/desc/55/?is_modal=1",
        "placeName": "38°10'19.7\"N 140°57'14.6\"E",
        "address": "4-chōme-19 Yuriagehigashi, Natori, Miyagi 981-1204, Japan",
        "imagePath": "image55.png"
    },
    {
        "index": 56,
        "url": "https://local.pokemon.jp/en/manhole/desc/56/?is_modal=1",
        "placeName": "38°06'19.1\"N 140°51'58.8\"E",
        "address": "Japan, 〒989-2432 Miyagi, Iwanuma, Chūō, 1-chōme−2−13 1F",
        "imagePath": "image56.png"
    },
    {
        "index": 57,
        "url": "https://local.pokemon.jp/en/manhole/desc/57/?is_modal=1",
        "placeName": "38°02'31.8\"N 140°54'56.6\"E",
        "address": "Kumazaki Arahama, Watari, Watari District, Miyagi 989-2311, Japan",
        "imagePath": "image57.png"
    },
    {
        "index": 58,
        "url": "https://local.pokemon.jp/en/manhole/desc/58/?is_modal=1",
        "placeName": "37°55'26.4\"N 140°54'03.6\"E",
        "address": "Sakamoto, Yamamoto, Watari District, Miyagi 989-2111, Japan",
        "imagePath": "image58.png"
    },
    {
        "index": 59,
        "url": "https://local.pokemon.jp/en/manhole/desc/59/?is_modal=1",
        "placeName": "43°35'09.1\"N 141°25'26.0\"E",
        "address": "Hamamasuku Mita, Ishikari, Hokkaido 061-3108, Japan",
        "imagePath": "image59.png"
    },
    {
        "index": 60,
        "url": "https://local.pokemon.jp/en/manhole/desc/60/?is_modal=1",
        "placeName": "42°53'49.7\"N 141°35'08.8\"E",
        "address": "817-18 Minamishimamatsu, Eniwa, Hokkaido 061-1375, Japan",
        "imagePath": "image60.png"
    },
    {
        "index": 61,
        "url": "https://local.pokemon.jp/en/manhole/desc/61/?is_modal=1",
        "placeName": "42°33'58.0\"N 140°49'08.7\"E",
        "address": "142 Toyakoonsen, Toyako, Abuta District, Hokkaido 049-5721, Japan",
        "imagePath": "image61.png"
    },
    {
        "index": 62,
        "url": "https://local.pokemon.jp/en/manhole/desc/62/?is_modal=1",
        "placeName": "42°06'31.9\"N 140°34'22.6\"E",
        "address": "Japan, 〒049-2325 Hokkaido, Kayabe District, Mori, Honcho, 森駅",
        "imagePath": "image62.png"
    },
    {
        "index": 63,
        "url": "https://local.pokemon.jp/en/manhole/desc/63/?is_modal=1",
        "placeName": "41°48'30.2\"N 140°05'43.5\"E",
        "address": "3 Harauta, Kaminokuni, Hiyama District, Hokkaido 049-0602, Japan",
        "imagePath": "image63.png"
    },
    {
        "index": 64,
        "url": "https://local.pokemon.jp/en/manhole/desc/64/?is_modal=1",
        "placeName": "44°10'33.5\"N 142°23'32.7\"E",
        "address": "Odorinishi 5 / Odorihigashi 6 / Odorihigashi 5 Chome, 6-chōme Ōdōrihigashi, Shibetsu, Hokkaido 095-0019, Japan",
        "imagePath": "image64.png"
    },
    {
        "index": 65,
        "url": "https://local.pokemon.jp/en/manhole/desc/65/?is_modal=1",
        "placeName": "43°52'30.1\"N 142°28'18.1\"E",
        "address": "2-chōme-6 Nishimachi, Pippu, Kamikawa District, Hokkaido 078-0342, Japan",
        "imagePath": "image65.png"
    },
    {
        "index": 66,
        "url": "https://local.pokemon.jp/en/manhole/desc/66/?is_modal=1",
        "placeName": "44°53'04.3\"N 141°44'52.7\"E",
        "address": "4 Chome-7227-2 Shinkaidori, Teshio, Teshio District, Hokkaido 098-3305, Japan",
        "imagePath": "image66.png"
    },
    {
        "index": 67,
        "url": "https://local.pokemon.jp/en/manhole/desc/67/?is_modal=1",
        "placeName": "45°25'02.1\"N 141°40'37.5\"E",
        "address": "3-chōme-6 Chūō, Wakkanai, Hokkaido 097-0022, Japan",
        "imagePath": "image67.png"
    },
    {
        "index": 68,
        "url": "https://local.pokemon.jp/en/manhole/desc/68/?is_modal=1",
        "placeName": "45°06'11.7\"N 141°46'43.1\"E",
        "address": "Japan, 〒098-4121 Hokkaido, Teshio District, Toyotomi, Toyotomi Higashi 1 Jo, 6 Chome, 町立定住支援センタ 内",
        "imagePath": "image68.png"
    },
    {
        "index": 69,
        "url": "https://local.pokemon.jp/en/manhole/desc/69/?is_modal=1",
        "placeName": "44°20'04.7\"N 143°22'20.0\"E",
        "address": "1 Kaiyokoen, Mombetsu, Hokkaido 094-0031, Japan",
        "imagePath": "image69.png"
    },
    {
        "index": 70,
        "url": "https://local.pokemon.jp/en/manhole/desc/70/?is_modal=1",
        "placeName": "44°01'18.8\"N 143°29'49.7\"E",
        "address": "Nogami, Engaru, Mombetsu District, Hokkaido 099-0344, Japan",
        "imagePath": "image70.png"
    },
    {
        "index": 71,
        "url": "https://local.pokemon.jp/en/manhole/desc/71/?is_modal=1",
        "placeName": "43°54'56.0\"N 144°10'16.9\"E",
        "address": "1-chōme-3 Memanbetsuhondōri, Ozora, Abashiri District, Hokkaido 099-2310, Japan",
        "imagePath": "image71.png"
    },
    {
        "index": 72,
        "url": "https://local.pokemon.jp/en/manhole/desc/72/?is_modal=1",
        "placeName": "43°04'57.7\"N 142°49'58.5\"E",
        "address": "Japan, 〒081-0005 Hokkaido, Kamikawa District, Shintoku, Hondorikita, 1 Chome−１−丁目",
        "imagePath": "image72.png"
    },
    {
        "index": 73,
        "url": "https://local.pokemon.jp/en/manhole/desc/73/?is_modal=1",
        "placeName": "43°14'39.2\"N 143°32'48.3\"E",
        "address": "1-chōme-3-1 Kita 1 Jō, Ashoro, Ashoro District, Hokkaido 089-3701, Japan",
        "imagePath": "image73.png"
    },
    {
        "index": 74,
        "url": "https://local.pokemon.jp/en/manhole/desc/74/?is_modal=1",
        "placeName": "35°32'22.8\"N 134°14'14.2\"E",
        "address": "Fukubecho Yuyama, Tottori, 689-0105, Japan",
        "imagePath": "image74.png"
    },
    {
        "index": 75,
        "url": "https://local.pokemon.jp/en/manhole/desc/75/?is_modal=1",
        "placeName": "35°27'22.5\"N 133°21'41.5\"E",
        "address": "3-chōme-1-1 Kaikeonsen, Yonago, Tottori 683-0001, Japan",
        "imagePath": "image75.png"
    },
    {
        "index": 76,
        "url": "https://local.pokemon.jp/en/manhole/desc/76/?is_modal=1",
        "placeName": "35°27'15.4\"N 133°51'00.4\"E",
        "address": "195 Agei, Kurayoshi, Tottori 682-0021, Japan",
        "imagePath": "image76.png"
    },
    {
        "index": 77,
        "url": "https://local.pokemon.jp/en/manhole/desc/77/?is_modal=1",
        "placeName": "35°31'17.3\"N 133°15'30.1\"E",
        "address": "Takenouchidanchi, Sakaiminato, Tottori 684-0046, Japan",
        "imagePath": "image77.png"
    },
    {
        "index": 78,
        "url": "https://local.pokemon.jp/en/manhole/desc/78/?is_modal=1",
        "placeName": "35°35'27.4\"N 134°19'17.6\"E",
        "address": "2475-16 Uradome, Iwami, Iwami District, Tottori 681-0003, Japan",
        "imagePath": "image78.png"
    },
    {
        "index": 79,
        "url": "https://local.pokemon.jp/en/manhole/desc/79/?is_modal=1",
        "placeName": "35°20'38.2\"N 134°24'01.2\"E",
        "address": "983 Wakasa, Yazu District, Tottori 680-0701, Japan",
        "imagePath": "image79.png"
    },
    {
        "index": 80,
        "url": "https://local.pokemon.jp/en/manhole/desc/80/?is_modal=1",
        "placeName": "35°24'33.6\"N 133°53'39.8\"E",
        "address": "Misasa, Tōhaku District, Tottori 682-0123, Japan",
        "imagePath": "image80.png"
    },
    {
        "index": 81,
        "url": "https://local.pokemon.jp/en/manhole/desc/81/?is_modal=1",
        "placeName": "35°28'41.4\"N 133°53'02.4\"E",
        "address": "Hawaionsen, Yurihama, Tōhaku District, Tottori 682-0715, Japan",
        "imagePath": "image81.png"
    },
    {
        "index": 82,
        "url": "https://local.pokemon.jp/en/manhole/desc/82/?is_modal=1",
        "placeName": "35°30'25.0\"N 133°39'41.8\"E",
        "address": "Japan, 〒689-2502 Tottori, Tōhaku District, Kotoura, Bessho, ポート赤碕",
        "imagePath": "image82.png"
    },
    {
        "index": 83,
        "url": "https://local.pokemon.jp/en/manhole/desc/83/?is_modal=1",
        "placeName": "35°30'16.5\"N 133°30'07.5\"E",
        "address": "951-6 Nawa, Daisen, Saihaku District, Tottori 689-3212, Japan",
        "imagePath": "image83.png"
    },
    {
        "index": 84,
        "url": "https://local.pokemon.jp/en/manhole/desc/84/?is_modal=1",
        "placeName": "35°20'50.9\"N 133°25'24.2\"E",
        "address": "Japan, 〒683-0217 Tottori, Saihaku District, Nambu, Tsuruda, Unnamed Road",
        "imagePath": "image84.png"
    },
    {
        "index": 85,
        "url": "https://local.pokemon.jp/en/manhole/desc/85/?is_modal=1",
        "placeName": "35°23'00.2\"N 133°27'30.6\"E",
        "address": "1015-21 Ōhara, Hoki, Saihaku District, Tottori 689-4102, Japan",
        "imagePath": "image85.png"
    },
    {
        "index": 86,
        "url": "https://local.pokemon.jp/en/manhole/desc/86/?is_modal=1",
        "placeName": "35°10'13.9\"N 133°18'39.4\"E",
        "address": "385 Shōyama, Nichinan, Hino District, Tottori 689-5211, Japan",
        "imagePath": "image86.png"
    },
    {
        "index": 87,
        "url": "https://local.pokemon.jp/en/manhole/desc/87/?is_modal=1",
        "placeName": "35°14'30.9\"N 133°26'27.8\"E",
        "address": "Neu, Hino, Hino District, Tottori 689-4503, Japan",
        "imagePath": "image87.png"
    },
    {
        "index": 88,
        "url": "https://local.pokemon.jp/en/manhole/desc/88/?is_modal=1",
        "placeName": "37°52'43.5\"N 140°55'30.1\"E",
        "address": "1-chōme-144-1 Ekimae, Shinchi, Soma District, Fukushima 979-2702, Japan",
        "imagePath": "image88.png"
    },
    {
        "index": 89,
        "url": "https://local.pokemon.jp/en/manhole/desc/89/?is_modal=1",
        "placeName": "37°49'39.8\"N 140°57'47.7\"E",
        "address": "Kitanoiri-111-1 Obama, Soma, Fukushima 976-0022, Japan",
        "imagePath": "image89.png"
    },
    {
        "index": 90,
        "url": "https://local.pokemon.jp/en/manhole/desc/90/?is_modal=1",
        "placeName": "37°38'08.8\"N 140°58'59.0\"E",
        "address": "2 Chome-30-1 Haramachiku Takamicho, Minamisōma, Fukushima 975-0033, Japan",
        "imagePath": "image90.png"
    },
    {
        "index": 91,
        "url": "https://local.pokemon.jp/en/manhole/desc/91/?is_modal=1",
        "placeName": "37°29'47.0\"N 141°00'03.3\"E",
        "address": "Chimeiji-101 Kiyohashi, Namie, Futaba District, Fukushima 979-1513, Japan",
        "imagePath": "image91.png"
    },
    {
        "index": 92,
        "url": "https://local.pokemon.jp/en/manhole/desc/92/?is_modal=1",
        "placeName": "37°15'00.5\"N 140°59'51.3\"E",
        "address": "Otsutsumiiri-22-1 Yamadaoka, Naraha, Futaba District, Fukushima 979-0513, Japan",
        "imagePath": "image92.png"
    },
    {
        "index": 93,
        "url": "https://local.pokemon.jp/en/manhole/desc/93/?is_modal=1",
        "placeName": "37°06'26.3\"N 140°59'35.8\"E",
        "address": "Japan, 〒979-0201 Fukushima, Iwaki, Yotsukuramachi, Gochōme−218-1 よつくら港",
        "imagePath": "image93.png"
    },
    {
        "index": 94,
        "url": "https://local.pokemon.jp/en/manhole/desc/94/?is_modal=1",
        "placeName": "37°40'03.6\"N 140°34'36.3\"E",
        "address": "Higashi-13-1 Tsuruzawa, Kawamata, Date District, Fukushima 960-1406, Japan",
        "imagePath": "image94.png"
    },
    {
        "index": 95,
        "url": "https://local.pokemon.jp/en/manhole/desc/95/?is_modal=1",
        "placeName": "37°20'39.9\"N 140°40'27.4\"E",
        "address": "Higashikamayama Takinemachi Sugaya, Tamura, Fukushima 963-3601, Japan",
        "imagePath": "image95.png"
    },
    {
        "index": 96,
        "url": "https://local.pokemon.jp/en/manhole/desc/96/?is_modal=1",
        "placeName": "37°19'46.1\"N 140°49'17.8\"E",
        "address": "Miyanoshita-25-1 Shimokawauchi, Kawauchi, Futaba District, Fukushima 979-1202, Japan",
        "imagePath": "image96.png"
    },
    {
        "index": 97,
        "url": "https://local.pokemon.jp/en/manhole/desc/97/?is_modal=1",
        "placeName": "34°18'48.3\"N 133°48'27.1\"E",
        "address": "4 Hama1bancho, Utazu, Ayauta District, Kagawa 769-0201, Japan",
        "imagePath": "image97.png"
    },
    {
        "index": 98,
        "url": "https://local.pokemon.jp/en/manhole/desc/98/?is_modal=1",
        "placeName": "35°32'53.2\"N 139°27'01.2\"E",
        "address": "5-chōme-18 Haramachida, Machida, Tokyo 194-0013, Japan",
        "imagePath": "image98.png"
    },
    {
        "index": 99,
        "url": "https://local.pokemon.jp/en/manhole/desc/99/?is_modal=1",
        "placeName": "35°32'53.4\"N 139°27'04.7\"E",
        "address": "Minamioya, Machida, Tokyo 194-0031, Japan",
        "imagePath": "image99.png"
    },
    {
        "index": 100,
        "url": "https://local.pokemon.jp/en/manhole/desc/100/?is_modal=1",
        "placeName": "35°32'43.1\"N 139°27'18.0\"E",
        "address": "1 Chome-10 Kogasaka, Machida, Tokyo 194-0014, Japan",
        "imagePath": "image100.png"
    },
    {
        "index": 101,
        "url": "https://local.pokemon.jp/en/manhole/desc/101/?is_modal=1",
        "placeName": "35°32'46.0\"N 139°27'15.7\"E",
        "address": "1 Chome-10 Kogasaka, Machida, Tokyo 194-0014, Japan",
        "imagePath": "image101.png"
    },
    {
        "index": 102,
        "url": "https://local.pokemon.jp/en/manhole/desc/102/?is_modal=1",
        "placeName": "35°32'44.3\"N 139°27'17.6\"E",
        "address": "1 Chome-10 Kogasaka, Machida, Tokyo 194-0014, Japan",
        "imagePath": "image102.png"
    },
    {
        "index": 103,
        "url": "https://local.pokemon.jp/en/manhole/desc/103/?is_modal=1",
        "placeName": "35°32'48.2\"N 139°27'14.3\"E",
        "address": "1-chōme-9 Kogasaka, Machida, Tokyo 194-0014, Japan",
        "imagePath": "image103.png"
    },
    {
        "index": 104,
        "url": "https://local.pokemon.jp/en/manhole/desc/104/?is_modal=1",
        "placeName": "35°00'36.7\"N 135°52'11.6\"E",
        "address": "14 Shimanoseki, Otsu, Shiga 520-0042, Japan",
        "imagePath": "image104.png"
    },
    {
        "index": 105,
        "url": "https://local.pokemon.jp/en/manhole/desc/105/?is_modal=1",
        "placeName": "34°59'53.2\"N 135°53'40.6\"E",
        "address": "Japan, 〒520-0813 Shiga, 大津市丸内町12−13",
        "imagePath": "image105.png"
    },
    {
        "index": 106,
        "url": "https://local.pokemon.jp/en/manhole/desc/106/?is_modal=1",
        "placeName": "35°15'55.5\"N 134°13'34.0\"E",
        "address": "2067-1 Chizu, Yazu District, Tottori 689-1402, Japan",
        "imagePath": "image106.png"
    },
    {
        "index": 107,
        "url": "https://local.pokemon.jp/en/manhole/desc/107/?is_modal=1",
        "placeName": "35°21'59.2\"N 134°20'21.9\"E",
        "address": "625 Tokumaru, Yazu, Yazu District, Tottori 680-0607, Japan",
        "imagePath": "image107.png"
    },
    {
        "index": 108,
        "url": "https://local.pokemon.jp/en/manhole/desc/108/?is_modal=1",
        "placeName": "35°29'57.3\"N 133°49'04.6\"E",
        "address": "489-1 Tai, Hokuei, Tōhaku District, Tottori 689-2103, Japan",
        "imagePath": "image108.png"
    },
    {
        "index": 109,
        "url": "https://local.pokemon.jp/en/manhole/desc/109/?is_modal=1",
        "placeName": "35°26'28.1\"N 133°22'46.5\"E",
        "address": "930 Hiezu, Saihaku District, Tottori 689-3553, Japan",
        "imagePath": "image109.png"
    },
    {
        "index": 110,
        "url": "https://local.pokemon.jp/en/manhole/desc/110/?is_modal=1",
        "placeName": "35°17'45.0\"N 133°28'26.7\"E",
        "address": "908-3 Sagawa, Kofu, Hino District, Tottori 689-4431, Japan",
        "imagePath": "image110.png"
    },
    {
        "index": 111,
        "url": "https://local.pokemon.jp/en/manhole/desc/111/?is_modal=1",
        "placeName": "31°48'27.0\"N 131°27'28.2\"E",
        "address": "Japan, 〒889-2161 Miyazaki, Kaeda, 7275-1 AOSHIMA PICNIC CLUB",
        "imagePath": "image111.png"
    },
    {
        "index": 112,
        "url": "https://local.pokemon.jp/en/manhole/desc/112/?is_modal=1",
        "placeName": "31°43'30.8\"N 131°03'58.3\"E",
        "address": "1-27 Tenjinchō, Miyakonojo, Miyazaki 885-0031, Japan",
        "imagePath": "image112.png"
    },
    {
        "index": 113,
        "url": "https://local.pokemon.jp/en/manhole/desc/113/?is_modal=1",
        "placeName": "32°41'05.0\"N 131°48'04.0\"E",
        "address": "3337-1 Kitauramachi Furue, Nobeoka, Miyazaki 889-0301, Japan",
        "imagePath": "image113.png"
    },
    {
        "index": 114,
        "url": "https://local.pokemon.jp/en/manhole/desc/114/?is_modal=1",
        "placeName": "31°35'16.6\"N 131°24'06.1\"E",
        "address": "1-10 Zaimokuchō, Nichinan, Miyazaki 887-0005, Japan",
        "imagePath": "image114.png"
    },
    {
        "index": 115,
        "url": "https://local.pokemon.jp/en/manhole/desc/115/?is_modal=1",
        "placeName": "31°57'27.0\"N 131°07'33.5\"E",
        "address": "5160 Nojirichō Higashifumoto, Kobayashi, Miyazaki 886-0212, Japan",
        "imagePath": "image115.png"
    },
    {
        "index": 116,
        "url": "https://local.pokemon.jp/en/manhole/desc/116/?is_modal=1",
        "placeName": "32°25'31.4\"N 131°37'39.9\"E",
        "address": "1-chome-70 Uemachi, Hyuga, Miyazaki 883-0044, Japan",
        "imagePath": "image116.png"
    },
    {
        "index": 117,
        "url": "https://local.pokemon.jp/en/manhole/desc/117/?is_modal=1",
        "placeName": "31°21'58.6\"N 131°19'58.1\"E",
        "address": "42-3 Ōnō, Kushima, Miyazaki 888-0221, Japan",
        "imagePath": "image117.png"
    },
    {
        "index": 118,
        "url": "https://local.pokemon.jp/en/manhole/desc/118/?is_modal=1",
        "placeName": "32°06'23.9\"N 131°24'16.2\"E",
        "address": "1 Chome Onozaki, Saito, Miyazaki 881-0012, Japan",
        "imagePath": "image118.png"
    },
    {
        "index": 119,
        "url": "https://local.pokemon.jp/en/manhole/desc/119/?is_modal=1",
        "placeName": "32°03'01.1\"N 130°48'21.4\"E",
        "address": "1006-1 Nagayama, Ebino, Miyazaki 889-4234, Japan",
        "imagePath": "image119.png"
    },
    {
        "index": 120,
        "url": "https://local.pokemon.jp/en/manhole/desc/120/?is_modal=1",
        "placeName": "38°00'09.0\"N 140°37'02.5\"E",
        "address": "1-1 Masuokachō, Shiroishi, Miyagi 989-0251, Japan",
        "imagePath": "image120.png"
    },
    {
        "index": 121,
        "url": "https://local.pokemon.jp/en/manhole/desc/121/?is_modal=1",
        "placeName": "37°58'07.3\"N 140°48'25.5\"E",
        "address": "Japan, 〒981-1504 Miyagi, Kakuda, Edano, Kitajima, 道の駅かくだ（バス",
        "imagePath": "image121.png"
    },
    {
        "index": 122,
        "url": "https://local.pokemon.jp/en/manhole/desc/122/?is_modal=1",
        "placeName": "38°36'59.9\"N 141°14'07.8\"E",
        "address": "Sakuraoka Kaimachii-582-1 Yoneyamacho, Tome, Miyagi 987-0311, Japan",
        "imagePath": "image122.png"
    },
    {
        "index": 123,
        "url": "https://local.pokemon.jp/en/manhole/desc/123/?is_modal=1",
        "placeName": "38°47'40.1\"N 140°50'39.9\"E",
        "address": "Honsawakitanomae-112-1, Kurihara, Miyagi 987-2511, Japan",
        "imagePath": "image123.png"
    },
    {
        "index": 124,
        "url": "https://local.pokemon.jp/en/manhole/desc/124/?is_modal=1",
        "placeName": "38°34'33.1\"N 140°57'21.5\"E",
        "address": "3-8 Furukawananokamachi, Ōsaki, Miyagi 989-6153, Japan",
        "imagePath": "image124.png"
    },
    {
        "index": 125,
        "url": "https://local.pokemon.jp/en/manhole/desc/125/?is_modal=1",
        "placeName": "38°23'54.0\"N 140°53'15.0\"E",
        "address": "Minamiura-59 Tomiya, Miyagi 981-3311, Japan",
        "imagePath": "image125.png"
    },
    {
        "index": 126,
        "url": "https://local.pokemon.jp/en/manhole/desc/126/?is_modal=1",
        "placeName": "38°07'25.2\"N 140°34'37.9\"E",
        "address": "Togattaonsen Nakamachi, Zaō, Katta District, Miyagi 989-0912, Japan",
        "imagePath": "image126.png"
    },
    {
        "index": 127,
        "url": "https://local.pokemon.jp/en/manhole/desc/127/?is_modal=1",
        "placeName": "37°58'57.1\"N 140°27'59.8\"E",
        "address": "8‐1 Uwano, Shichikashuku, Katta District, Miyagi 989-0537, Japan",
        "imagePath": "image127.png"
    },
    {
        "index": 128,
        "url": "https://local.pokemon.jp/en/manhole/desc/128/?is_modal=1",
        "placeName": "38°02'54.6\"N 140°44'17.1\"E",
        "address": "Machimukai-116-26 Ōya, Ogawara, Shibata District, Miyagi 989-1201, Japan",
        "imagePath": "image128.png"
    },
    {
        "index": 129,
        "url": "https://local.pokemon.jp/en/manhole/desc/129/?is_modal=1",
        "placeName": "38°07'08.7\"N 140°43'04.2\"E",
        "address": "Hasama Murata, Shibata District, Miyagi 989-1305, Japan",
        "imagePath": "image129.png"
    },
    {
        "index": 130,
        "url": "https://local.pokemon.jp/en/manhole/desc/130/?is_modal=1",
        "placeName": "38°03'32.9\"N 140°46'05.7\"E",
        "address": "1-chōme-1-1 Funaokachūō, Shibata, Shibata District, Miyagi 989-1601, Japan",
        "imagePath": "image130.png"
    },
    {
        "index": 131,
        "url": "https://local.pokemon.jp/en/manhole/desc/131/?is_modal=1",
        "placeName": "38°10'39.1\"N 140°38'47.2\"E",
        "address": "Uracho-32-8 Maekawa, Kawasaki, Shibata District, Miyagi 989-1501, Japan",
        "imagePath": "image131.png"
    },
    {
        "index": 132,
        "url": "https://local.pokemon.jp/en/manhole/desc/132/?is_modal=1",
        "placeName": "37°54'49.9\"N 140°45'45.1\"E",
        "address": "Machihigashi, Marumori, Igu District, Miyagi 981-2164, Japan",
        "imagePath": "image132.png"
    },
    {
        "index": 133,
        "url": "https://local.pokemon.jp/en/manhole/desc/133/?is_modal=1",
        "placeName": "38°26'14.5\"N 140°53'08.3\"E",
        "address": "Japan, 〒981-3632 Miyagi, Kurokawa District, Taiwa, Yoshiokamahoroba, 1-chome−５−21",
        "imagePath": "image133.png"
    },
    {
        "index": 134,
        "url": "https://local.pokemon.jp/en/manhole/desc/134/?is_modal=1",
        "placeName": "38°25'26.5\"N 140°59'33.6\"E",
        "address": "Kitaura-51-6 Nakamura, Osato Town, Kurokawa District, Miyagi 981-3521, Japan",
        "imagePath": "image134.png"
    },
    {
        "index": 135,
        "url": "https://local.pokemon.jp/en/manhole/desc/135/?is_modal=1",
        "placeName": "38°28'10.0\"N 140°53'24.8\"E",
        "address": "Tairabayashi Ohira, Ōhira, Kurokawa District, Miyagi 981-3602, Japan",
        "imagePath": "image135.png"
    },
    {
        "index": 136,
        "url": "https://local.pokemon.jp/en/manhole/desc/136/?is_modal=1",
        "placeName": "38°31'48.5\"N 140°51'41.1\"E",
        "address": "Higashihara-1-12 Shikama, Kami District, Miyagi 981-4122, Japan",
        "imagePath": "image136.png"
    },
    {
        "index": 137,
        "url": "https://local.pokemon.jp/en/manhole/desc/137/?is_modal=1",
        "placeName": "38°34'19.7\"N 140°43'42.9\"E",
        "address": "1-76 Ajigafukuro Yakuraihara, Kami, Kami District, Miyagi 981-4375, Japan",
        "imagePath": "image137.png"
    },
    {
        "index": 138,
        "url": "https://local.pokemon.jp/en/manhole/desc/138/?is_modal=1",
        "placeName": "38°32'21.4\"N 141°07'36.3\"E",
        "address": "114 Shinmachiura, Wakuya, Toda District, Miyagi 987-0114, Japan",
        "imagePath": "image138.png"
    },
    {
        "index": 139,
        "url": "https://local.pokemon.jp/en/manhole/desc/139/?is_modal=1",
        "placeName": "38°29'20.6\"N 141°07'59.0\"E",
        "address": "Harada-5 Kimatsuka, Misato, Toda District, Miyagi 989-4205, Japan",
        "imagePath": "image139.png"
    },
    {
        "index": 140,
        "url": "https://local.pokemon.jp/en/manhole/desc/140/?is_modal=1",
        "placeName": "42°38'08.7\"N 141°36'36.3\"E",
        "address": "3 Chome Suehirocho, Tomakomai, Hokkaido 053-0011, Japan",
        "imagePath": "image140.png"
    },
    {
        "index": 141,
        "url": "https://local.pokemon.jp/en/manhole/desc/141/?is_modal=1",
        "placeName": "43°15'40.7\"N 141°57'45.6\"E",
        "address": "1-chōme-212-1 Ikushunbetsu Nishikichō, Mikasa, Hokkaido 068-2111, Japan",
        "imagePath": "image141.png"
    },
    {
        "index": 142,
        "url": "https://local.pokemon.jp/en/manhole/desc/142/?is_modal=1",
        "placeName": "43°27'44.1\"N 142°28'44.6\"E",
        "address": "5 Chome Asahimachi, Kamifurano, Sorachi District, Hokkaido 071-0553, Japan",
        "imagePath": "image142.png"
    },
    {
        "index": 143,
        "url": "https://local.pokemon.jp/en/manhole/desc/143/?is_modal=1",
        "placeName": "44°06'00.1\"N 142°21'33.5\"E",
        "address": "16-1 Midorimachi, Kembuchi, Kamikawa District, Hokkaido 098-0332, Japan",
        "imagePath": "image143.png"
    },
    {
        "index": 144,
        "url": "https://local.pokemon.jp/en/manhole/desc/144/?is_modal=1",
        "placeName": "37°18'51.2\"N 138°47'41.3\"E",
        "address": "2-chōme-7-5 Jōnai, Ojiya, Niigata 947-0028, Japan",
        "imagePath": "image144.png"
    },
    {
        "index": 145,
        "url": "https://local.pokemon.jp/en/manhole/desc/145/?is_modal=1",
        "placeName": "37°18'35.6\"N 138°48'46.6\"E",
        "address": "1-chōme-1 Tōei, Ojiya, Niigata 947-0004, Japan",
        "imagePath": "image145.png"
    },
    {
        "index": 146,
        "url": "https://local.pokemon.jp/en/manhole/desc/146/?is_modal=1",
        "placeName": "37°18'39.7\"N 138°47'44.4\"E",
        "address": "1-chōme-8-30 Jōnai, Ojiya, Niigata 947-0028, Japan",
        "imagePath": "image146.png"
    },
    {
        "index": 147,
        "url": "https://local.pokemon.jp/en/manhole/desc/147/?is_modal=1",
        "placeName": "37°18'51.5\"N 138°47'00.6\"E",
        "address": "4915 Sakuramachi, Ojiya, Niigata 947-0035, Japan",
        "imagePath": "image147.png"
    },
    {
        "index": 148,
        "url": "https://local.pokemon.jp/en/manhole/desc/148/?is_modal=1",
        "placeName": "34°36'06.8\"N 135°44'21.0\"E",
        "address": "Japan, 〒636-0123 Nara, Ikoma District, Ikaruga, Okidome, 9-chōme−1−1 法隆寺駅",
        "imagePath": "image148.png"
    },
    {
        "index": 149,
        "url": "https://local.pokemon.jp/en/manhole/desc/149/?is_modal=1",
        "placeName": "34°36'17.1\"N 135°44'15.4\"E",
        "address": "5-chōme-5 Okidome, Ikaruga, Ikoma District, Nara 636-0123, Japan",
        "imagePath": "image149.png"
    },
    {
        "index": 150,
        "url": "https://local.pokemon.jp/en/manhole/desc/150/?is_modal=1",
        "placeName": "34°36'29.8\"N 135°44'15.7\"E",
        "address": "2-chōme-1-34 Okidome, Ikaruga, Ikoma District, Nara 636-0123, Japan",
        "imagePath": "image150.png"
    },
    {
        "index": 151,
        "url": "https://local.pokemon.jp/en/manhole/desc/151/?is_modal=1",
        "placeName": "34°36'29.7\"N 135°44'15.2\"E",
        "address": "1 Chome-2-16 Horyujiminami, Ikaruga, Ikoma District, Nara 636-0113, Japan",
        "imagePath": "image151.png"
    },
    {
        "index": 152,
        "url": "https://local.pokemon.jp/en/manhole/desc/152/?is_modal=1",
        "placeName": "34°36'35.4\"N 135°44'07.0\"E",
        "address": "1-chōme-8-30 Hōryūji, Ikaruga, Ikoma District, Nara 636-0116, Japan",
        "imagePath": "image152.png"
    },
    {
        "index": 153,
        "url": "https://local.pokemon.jp/en/manhole/desc/153/?is_modal=1",
        "placeName": "27°05'41.5\"N 142°11'38.5\"E",
        "address": "Higashimachi-17-1 Chichijima, Ogasawara, Tokyo 100-2101, Japan",
        "imagePath": "image153.png"
    },
    {
        "index": 154,
        "url": "https://local.pokemon.jp/en/manhole/desc/154/?is_modal=1",
        "placeName": "27°05'41.0\"N 142°11'35.8\"E",
        "address": "Higashimachi Chichijima, Ogasawara, Tokyo 100-2101, Japan",
        "imagePath": "image154.png"
    },
    {
        "index": 155,
        "url": "https://local.pokemon.jp/en/manhole/desc/155/?is_modal=1",
        "placeName": "27°05'40.6\"N 142°11'34.0\"E",
        "address": "Higashimachi Chichijima, Ogasawara, Tokyo 100-2101, Japan",
        "imagePath": "image155.png"
    },
    {
        "index": 156,
        "url": "https://local.pokemon.jp/en/manhole/desc/156/?is_modal=1",
        "placeName": "27°05'40.1\"N 142°11'32.5\"E",
        "address": "Higashimachi-6-2 Chichijima, Ogasawara, Tokyo 100-2101, Japan",
        "imagePath": "image156.png"
    },
    {
        "index": 157,
        "url": "https://local.pokemon.jp/en/manhole/desc/157/?is_modal=1",
        "placeName": "40°32'16.6\"N 141°33'28.9\"E",
        "address": "Same Samemachi, Hachinohe, Aomori 031-0841, Japan",
        "imagePath": "image157.png"
    },
    {
        "index": 158,
        "url": "https://local.pokemon.jp/en/manhole/desc/158/?is_modal=1",
        "placeName": "40°27'30.4\"N 141°36'30.0\"E",
        "address": "Japan, 〒039-1201 Aomori, Sannohe District, Hashikami, Dobutsu, Mimigahoi−３−3",
        "imagePath": "image158.png"
    },
    {
        "index": 159,
        "url": "https://local.pokemon.jp/en/manhole/desc/159/?is_modal=1",
        "placeName": "35°00'42.7\"N 135°40'43.5\"E",
        "address": "Saganakanoshimacho, Ukyo Ward, Kyoto, 616-8383, Japan",
        "imagePath": "image159.png"
    },
    {
        "index": 160,
        "url": "https://local.pokemon.jp/en/manhole/desc/160/?is_modal=1",
        "placeName": "35°00'12.1\"N 135°46'50.1\"E",
        "address": "627 Gionmachi Kitagawa, Higashiyama Ward, Kyoto, 605-0073, Japan",
        "imagePath": "image160.png"
    },
    {
        "index": 161,
        "url": "https://local.pokemon.jp/en/manhole/desc/161/?is_modal=1",
        "placeName": "34°59'41.2\"N 135°42'51.6\"E",
        "address": "615 Nishikyōgoku Shinmeichō, Ukyo Ward, Kyoto, 615-0864, Japan",
        "imagePath": "image161.png"
    },
    {
        "index": 162,
        "url": "https://local.pokemon.jp/en/manhole/desc/162/?is_modal=1",
        "placeName": "35°00'53.5\"N 135°46'55.3\"E",
        "address": "95 Okazaki Saishōjichō, Sakyo Ward, Kyoto, 606-8342, Japan",
        "imagePath": "image162.png"
    },
    {
        "index": 163,
        "url": "https://local.pokemon.jp/en/manhole/desc/163/?is_modal=1",
        "placeName": "34°59'16.1\"N 135°44'36.7\"E",
        "address": "Kankijicho, Shimogyo Ward, Kyoto, 600-8835, Japan",
        "imagePath": "image163.png"
    },
    {
        "index": 164,
        "url": "https://local.pokemon.jp/en/manhole/desc/164/?is_modal=1",
        "placeName": "31°44'01.5\"N 131°07'13.1\"E",
        "address": "4421-2 Kabayama, Mimata, Kitamorokata District, Miyazaki 889-1901, Japan",
        "imagePath": "image164.png"
    },
    {
        "index": 165,
        "url": "https://local.pokemon.jp/en/manhole/desc/165/?is_modal=1",
        "placeName": "32°06'57.4\"N 131°31'58.2\"E",
        "address": "Kaguchiura, Takanabe, Koyu District, Miyazaki 884-0004, Japan",
        "imagePath": "image165.png"
    },
    {
        "index": 166,
        "url": "https://local.pokemon.jp/en/manhole/desc/166/?is_modal=1",
        "placeName": "32°04'15.8\"N 131°30'43.9\"E",
        "address": "Hioki, Shintomi, Koyu District, Miyazaki 889-1401, Japan",
        "imagePath": "image166.png"
    },
    {
        "index": 167,
        "url": "https://local.pokemon.jp/en/manhole/desc/167/?is_modal=1",
        "placeName": "32°10'11.6\"N 131°25'47.1\"E",
        "address": "476 Kawabaru, 大字 Kijo, Koyu District, Miyazaki 884-0103, Japan",
        "imagePath": "image167.png"
    },
    {
        "index": 168,
        "url": "https://local.pokemon.jp/en/manhole/desc/168/?is_modal=1",
        "placeName": "32°11'29.4\"N 131°31'44.3\"E",
        "address": "2386-3 Heida, Kawaminami, Koyu District, Miyazaki 889-1302, Japan",
        "imagePath": "image168.png"
    },
    {
        "index": 169,
        "url": "https://local.pokemon.jp/en/manhole/desc/169/?is_modal=1",
        "placeName": "32°15'39.3\"N 131°33'27.3\"E",
        "address": "Tsuno, Koyu District, Miyazaki 889-1201, Japan",
        "imagePath": "image169.png"
    },
    {
        "index": 170,
        "url": "https://local.pokemon.jp/en/manhole/desc/170/?is_modal=1",
        "placeName": "32°29'13.3\"N 131°40'36.2\"E",
        "address": "2822 Iorigawa, Kadogawa, Higashiusuki District, Miyazaki 889-0602, Japan",
        "imagePath": "image170.png"
    },
    {
        "index": 171,
        "url": "https://local.pokemon.jp/en/manhole/desc/171/?is_modal=1",
        "placeName": "32°25'55.1\"N 131°28'03.2\"E",
        "address": "Saigotashiro, Misato, Higashiusuki District, Miyazaki 883-1101, Japan",
        "imagePath": "image171.png"
    },
    {
        "index": 172,
        "url": "https://local.pokemon.jp/en/manhole/desc/172/?is_modal=1",
        "placeName": "35°43'00.5\"N 139°46'35.0\"E",
        "address": "7-20 Uenokoen, Taito City, Tokyo 110-0007, Japan",
        "imagePath": "image172.png"
    },
    {
        "index": 173,
        "url": "https://local.pokemon.jp/en/manhole/desc/173/?is_modal=1",
        "placeName": "35°43'03.8\"N 139°46'31.4\"E",
        "address": "13-13 Uenokoen, Taito City, Tokyo 110-0007, Japan",
        "imagePath": "image173.png"
    },
    {
        "index": 174,
        "url": "https://local.pokemon.jp/en/manhole/desc/174/?is_modal=1",
        "placeName": "26°12'59.1\"N 127°41'21.9\"E",
        "address": "3 Chome-2 Makishi, Naha, Okinawa 900-0013, Japan",
        "imagePath": "image174.png"
    },
    {
        "index": 175,
        "url": "https://local.pokemon.jp/en/manhole/desc/175/?is_modal=1",
        "placeName": "26°16'53.0\"N 127°43'56.0\"E",
        "address": "4-chōme-2-２番1号 Mashiki, Ginowan, Okinawa 901-2224, Japan",
        "imagePath": "image175.png"
    },
    {
        "index": 176,
        "url": "https://local.pokemon.jp/en/manhole/desc/176/?is_modal=1",
        "placeName": "26°19'39.6\"N 127°48'10.8\"E",
        "address": "5-chōme-7 Goya, Okinawa, 904-0021, Japan",
        "imagePath": "image176.png"
    },
    {
        "index": 177,
        "url": "https://local.pokemon.jp/en/manhole/desc/177/?is_modal=1",
        "placeName": "26°26'10.3\"N 127°49'34.0\"E",
        "address": "2316 Ishikawa, Uruma, Okinawa 904-1106, Japan",
        "imagePath": "image177.png"
    },
    {
        "index": 178,
        "url": "https://local.pokemon.jp/en/manhole/desc/178/?is_modal=1",
        "placeName": "31°54'26.0\"N 130°57'36.7\"E",
        "address": "Parking lot, 3-251 Kamamuta, Takaharu, Nishimorokata District, Miyazaki 889-4414, Japan",
        "imagePath": "image178.png"
    },
    {
        "index": 179,
        "url": "https://local.pokemon.jp/en/manhole/desc/179/?is_modal=1",
        "placeName": "31°59'18.9\"N 131°19'18.9\"E",
        "address": "4043-5 Honjō, Kunitomi, Higashimorokata District, Miyazaki 880-1101, Japan",
        "imagePath": "image179.png"
    },
    {
        "index": 180,
        "url": "https://local.pokemon.jp/en/manhole/desc/180/?is_modal=1",
        "placeName": "31°59'56.3\"N 131°15'13.5\"E",
        "address": "515 Minamimata, Aya, Higashimorokata District, Miyazaki 880-1303, Japan",
        "imagePath": "image180.png"
    },
    {
        "index": 181,
        "url": "https://local.pokemon.jp/en/manhole/desc/181/?is_modal=1",
        "placeName": "32°13'23.7\"N 131°09'47.8\"E",
        "address": "1, Murasho, Nishimera, Koyu District, Miyazaki 881-1411, Japan",
        "imagePath": "image181.png"
    },
    {
        "index": 182,
        "url": "https://local.pokemon.jp/en/manhole/desc/182/?is_modal=1",
        "placeName": "32°30'35.3\"N 131°19'53.4\"E",
        "address": "2640-3 Eshiro, Morotsuka, Higashiusuki District, Miyazaki 883-1301, Japan",
        "imagePath": "image182.png"
    },
    {
        "index": 183,
        "url": "https://local.pokemon.jp/en/manhole/desc/183/?is_modal=1",
        "placeName": "32°27'29.4\"N 131°09'13.8\"E",
        "address": "1829-2 Shimofukura, Shiiba, Higashiusuki District, Miyazaki 883-1601, Japan",
        "imagePath": "image183.png"
    },
    {
        "index": 184,
        "url": "https://local.pokemon.jp/en/manhole/desc/184/?is_modal=1",
        "placeName": "32°42'27.9\"N 131°18'21.2\"E",
        "address": "1127-5 Mitai, Takachiho, Nishiusuki District, Miyazaki 882-1101, Japan",
        "imagePath": "image184.png"
    },
    {
        "index": 185,
        "url": "https://local.pokemon.jp/en/manhole/desc/185/?is_modal=1",
        "placeName": "32°39'38.3\"N 131°23'19.1\"E",
        "address": "Japan, 〒882-0401 Miyazaki, Nishiusuki District, Hinokage, Nanaori, 8705-12 レストランひのおかげ",
        "imagePath": "image185.png"
    },
    {
        "index": 186,
        "url": "https://local.pokemon.jp/en/manhole/desc/186/?is_modal=1",
        "placeName": "32°40'44.6\"N 131°12'36.2\"E",
        "address": "Sangasho, Gokase, Nishiusuki District, Miyazaki 882-1203, Japan",
        "imagePath": "image186.png"
    },
    {
        "index": 187,
        "url": "https://local.pokemon.jp/en/manhole/desc/187/?is_modal=1",
        "placeName": "41°45'21.3\"N 140°42'56.5\"E",
        "address": "17-6 Aoyagichō, Hakodate, Hokkaido 040-0044, Japan",
        "imagePath": "image187.png"
    },
    {
        "index": 188,
        "url": "https://local.pokemon.jp/en/manhole/desc/188/?is_modal=1",
        "placeName": "43°11'44.0\"N 140°59'53.8\"E",
        "address": "1 Chome-4-15 Inaho, Otaru, Hokkaido 047-0032, Japan",
        "imagePath": "image188.png"
    },
    {
        "index": 189,
        "url": "https://local.pokemon.jp/en/manhole/desc/189/?is_modal=1",
        "placeName": "43°20'09.4\"N 145°35'53.5\"E",
        "address": "Makinouchi, Nemuro, Hokkaido 087-0002, Japan",
        "imagePath": "image189.png"
    },
    {
        "index": 190,
        "url": "https://local.pokemon.jp/en/manhole/desc/190/?is_modal=1",
        "placeName": "42°27'10.0\"N 141°10'51.6\"E",
        "address": "1 Chome-15-10 Noboribetsuhigashicho, Noboribetsu, Hokkaido 059-0464, Japan",
        "imagePath": "image190.png"
    },
    {
        "index": 191,
        "url": "https://local.pokemon.jp/en/manhole/desc/191/?is_modal=1",
        "placeName": "43°07'32.8\"N 143°36'48.4\"E",
        "address": "3-chōme-1-1 Kita, Hombetsu, Nakagawa District, Hokkaido 089-3334, Japan",
        "imagePath": "image191.png"
    },
    {
        "index": 192,
        "url": "https://local.pokemon.jp/en/manhole/desc/192/?is_modal=1",
        "placeName": "43°28'03.7\"N 143°44'33.8\"E",
        "address": "Bunsen-118 Rikubetsugenya, Rikubetsu, Ashoro District, Hokkaido 089-4300, Japan",
        "imagePath": "image192.png"
    },
    {
        "index": 193,
        "url": "https://local.pokemon.jp/en/manhole/desc/193/?is_modal=1",
        "placeName": "43°33'16.4\"N 144°58'10.6\"E",
        "address": "2 Chome Maruyama, Nakashibetsu, Shibetsu District, Hokkaido 086-1164, Japan",
        "imagePath": "image193.png"
    },
    {
        "index": 194,
        "url": "https://local.pokemon.jp/en/manhole/desc/194/?is_modal=1",
        "placeName": "34°26'03.4\"N 133°48'50.0\"E",
        "address": "1 Shimotsuitanoura, Kurashiki, Okayama 711-0925, Japan",
        "imagePath": "image194.png"
    },
    {
        "index": 195,
        "url": "https://local.pokemon.jp/en/manhole/desc/195/?is_modal=1",
        "placeName": "34°35'44.0\"N 133°46'08.0\"E",
        "address": "2-chōme-6-1 Chūō, Kurashiki, Okayama 710-0046, Japan",
        "imagePath": "image195.png"
    },
    {
        "index": 196,
        "url": "https://local.pokemon.jp/en/manhole/desc/196/?is_modal=1",
        "placeName": "34°35'33.9\"N 133°46'13.7\"E",
        "address": "1-chōme-15 Chūō, Kurashiki, Okayama 710-0046, Japan",
        "imagePath": "image196.png"
    },
    {
        "index": 197,
        "url": "https://local.pokemon.jp/en/manhole/desc/197/?is_modal=1",
        "placeName": "34°35'53.8\"N 133°46'13.0\"E",
        "address": "2 Chome-5 Tsurugata, Kurashiki, Okayama 710-0056, Japan",
        "imagePath": "image197.png"
    },
    {
        "index": 198,
        "url": "https://local.pokemon.jp/en/manhole/desc/198/?is_modal=1",
        "placeName": "33°53'05.9\"N 130°52'34.4\"E",
        "address": "1-1 Jonai, Kokurakita Ward, Kitakyushu, Fukuoka 803-0813, Japan",
        "imagePath": "image198.png"
    },
    {
        "index": 199,
        "url": "https://local.pokemon.jp/en/manhole/desc/199/?is_modal=1",
        "placeName": "33°53'25.9\"N 130°53'04.6\"E",
        "address": "3-chōme-5-34 Asano, Kokurakita Ward, Kitakyushu, Fukuoka 802-0001, Japan",
        "imagePath": "image199.png"
    },
    {
        "index": 200,
        "url": "https://local.pokemon.jp/en/manhole/desc/200/?is_modal=1",
        "placeName": "33°52'18.5\"N 130°48'27.0\"E",
        "address": "2 Chome-3 Higashida, Yahatahigashi Ward, Kitakyushu, Fukuoka 805-0071, Japan",
        "imagePath": "image200.png"
    },
    {
        "index": 201,
        "url": "https://local.pokemon.jp/en/manhole/desc/201/?is_modal=1",
        "placeName": "33°56'46.6\"N 130°57'50.8\"E",
        "address": "5-1 Minatomachi, Moji Ward, Kitakyushu, Fukuoka 801-0852, Japan",
        "imagePath": "image201.png"
    },
    {
        "index": 202,
        "url": "https://local.pokemon.jp/en/manhole/desc/202/?is_modal=1",
        "placeName": "33°57'25.9\"N 130°57'41.8\"E",
        "address": "2-chōme-5 Kyūmoji, Moji Ward, Kitakyushu, Fukuoka 801-0854, Japan",
        "imagePath": "image202.png"
    },
    {
        "index": 203,
        "url": "https://local.pokemon.jp/en/manhole/desc/203/?is_modal=1",
        "placeName": "34°36'06.6\"N 135°00'34.0\"E",
        "address": "1873-1 Iwaya, Awaji, Hyogo 656-2401, Japan",
        "imagePath": "image203.png"
    },
    {
        "index": 204,
        "url": "https://local.pokemon.jp/en/manhole/desc/204/?is_modal=1",
        "placeName": "34°33'01.6\"N 134°56'17.1\"E",
        "address": "409 Funagi, Awaji, Hyogo 656-1736, Japan",
        "imagePath": "image204.png"
    },
    {
        "index": 205,
        "url": "https://local.pokemon.jp/en/manhole/desc/205/?is_modal=1",
        "placeName": "34°28'55.7\"N 134°52'23.2\"E",
        "address": "3025-1 Osaki, Awaji, Hyogo 656-1501, Japan",
        "imagePath": "image205.png"
    },
    {
        "index": 206,
        "url": "https://local.pokemon.jp/en/manhole/desc/206/?is_modal=1",
        "placeName": "34°40'47.2\"N 135°36'04.4\"E",
        "address": "1-chōme-1 Aramotokita, Higashiosaka, Osaka 577-0011, Japan",
        "imagePath": "image206.png"
    },
    {
        "index": 207,
        "url": "https://local.pokemon.jp/en/manhole/desc/207/?is_modal=1",
        "placeName": "34°40'03.8\"N 135°38'23.6\"E",
        "address": "1 Asahimachi, Higashiosaka, Osaka 579-8048, Japan",
        "imagePath": "image207.png"
    },
    {
        "index": 208,
        "url": "https://local.pokemon.jp/en/manhole/desc/208/?is_modal=1",
        "placeName": "34°40'50.4\"N 135°39'02.8\"E",
        "address": "2-chōme-4 Higashiishikirichō, Higashiosaka, Osaka 579-8011, Japan",
        "imagePath": "image208.png"
    },
    {
        "index": 209,
        "url": "https://local.pokemon.jp/en/manhole/desc/209/?is_modal=1",
        "placeName": "34°40'03.6\"N 135°37'34.7\"E",
        "address": "1 Chome-1-1 Matsubaraminami, Higashiosaka, Osaka 578-0923, Japan",
        "imagePath": "image209.png"
    },
    {
        "index": 210,
        "url": "https://local.pokemon.jp/en/manhole/desc/210/?is_modal=1",
        "placeName": "34°40'10.2\"N 135°37'50.1\"E",
        "address": "2-chōme-1-17 Matsubaraminami, Higashiosaka, Osaka 578-0923, Japan",
        "imagePath": "image210.png"
    },
    {
        "index": 211,
        "url": "https://local.pokemon.jp/en/manhole/desc/211/?is_modal=1",
        "placeName": "35°47'50.9\"N 139°30'19.9\"E",
        "address": "143-3 Matsugō, Tokorozawa, Saitama 359-0027, Japan",
        "imagePath": "image211.png"
    },
    {
        "index": 212,
        "url": "https://local.pokemon.jp/en/manhole/desc/212/?is_modal=1",
        "placeName": "35°47'12.8\"N 139°28'22.4\"E",
        "address": "2 Hiyoshicho, Tokorozawa, Saitama 359-1123, Japan",
        "imagePath": "image212.png"
    },
    {
        "index": 213,
        "url": "https://local.pokemon.jp/en/manhole/desc/213/?is_modal=1",
        "placeName": "35°47'55.4\"N 139°28'19.2\"E",
        "address": "1 Chome Namiki, Tokorozawa, Saitama 359-0042, Japan",
        "imagePath": "image213.png"
    },
    {
        "index": 214,
        "url": "https://local.pokemon.jp/en/manhole/desc/214/?is_modal=1",
        "placeName": "43°45'34.5\"N 142°20'54.6\"E",
        "address": "Japan, 〒070-8004 Hokkaido, Asahikawa, Kagura 4 Jo, 6 Chome−1−12 あさひかわ 道の駅",
        "imagePath": "image214.png"
    },
    {
        "index": 215,
        "url": "https://local.pokemon.jp/en/manhole/desc/215/?is_modal=1",
        "placeName": "43°08'38.5\"N 144°08'43.8\"E",
        "address": "23 Sen-36-1 Akanchō Kamiakan, Kushiro, Hokkaido 085-0245, Japan",
        "imagePath": "image215.png"
    },
    {
        "index": 216,
        "url": "https://local.pokemon.jp/en/manhole/desc/216/?is_modal=1",
        "placeName": "42°55'05.5\"N 143°12'09.2\"E",
        "address": "12 Chome Nishi 2 Jominami, Obihiro, Hokkaido 080-0012, Japan",
        "imagePath": "image216.png"
    },
    {
        "index": 217,
        "url": "https://local.pokemon.jp/en/manhole/desc/217/?is_modal=1",
        "placeName": "44°01'19.0\"N 144°16'27.9\"E",
        "address": "4 Chome-5-1 Minami 3 Johigashi, Abashiri, Hokkaido 093-0003, Japan",
        "imagePath": "image217.png"
    },
    {
        "index": 218,
        "url": "https://local.pokemon.jp/en/manhole/desc/218/?is_modal=1",
        "placeName": "43°03'04.5\"N 140°50'39.3\"E",
        "address": "190-16 Miyako, Akaigawa, Yoichi District, Hokkaido 046-0541, Japan",
        "imagePath": "image218.png"
    },
    {
        "index": 219,
        "url": "https://local.pokemon.jp/en/manhole/desc/219/?is_modal=1",
        "placeName": "43°41'54.3\"N 142°30'25.3\"E",
        "address": "1-chōme-1 Kitamachi, Higashikawa, Kamikawa District, Hokkaido 071-1426, Japan",
        "imagePath": "image219.png"
    },
    {
        "index": 220,
        "url": "https://local.pokemon.jp/en/manhole/desc/220/?is_modal=1",
        "placeName": "44°04'07.8\"N 144°59'26.2\"E",
        "address": "186-8 Utoronishi, Shari, Shari District, Hokkaido 099-4354, Japan",
        "imagePath": "image220.png"
    },
    {
        "index": 221,
        "url": "https://local.pokemon.jp/en/manhole/desc/221/?is_modal=1",
        "placeName": "42°01'04.2\"N 143°08'46.3\"E",
        "address": "Honcho, Erimo, Horoizumi District, Hokkaido 058-0204, Japan",
        "imagePath": "image221.png"
    },
    {
        "index": 222,
        "url": "https://local.pokemon.jp/en/manhole/desc/222/?is_modal=1",
        "placeName": "35°53'39.9\"N 140°29'38.1\"E",
        "address": "Sawara, Katori, Chiba 287-0003, Japan",
        "imagePath": "image222.png"
    },
    {
        "index": 223,
        "url": "https://local.pokemon.jp/en/manhole/desc/223/?is_modal=1",
        "placeName": "35°53'18.2\"N 140°29'51.2\"E",
        "address": "I-1722-1 Sawara, Katori, Chiba 287-0003, Japan",
        "imagePath": "image223.png"
    },
    {
        "index": 224,
        "url": "https://local.pokemon.jp/en/manhole/desc/224/?is_modal=1",
        "placeName": "35°55'41.5\"N 140°31'24.2\"E",
        "address": "1837-2 Ōgishima, Katori, Chiba 287-0801, Japan",
        "imagePath": "image224.png"
    },
    {
        "index": 225,
        "url": "https://local.pokemon.jp/en/manhole/desc/225/?is_modal=1",
        "placeName": "35°53'46.3\"N 140°30'23.1\"E",
        "address": "I-4053-3, Katori, Chiba 287-0003, Japan",
        "imagePath": "image225.png"
    },
    {
        "index": 226,
        "url": "https://local.pokemon.jp/en/manhole/desc/226/?is_modal=1",
        "placeName": "36°33'38.8\"N 139°54'34.2\"E",
        "address": "5-chōme-3 Motoimaizumi, Utsunomiya, Tochigi 321-0954, Japan",
        "imagePath": "image226.png"
    },
    {
        "index": 227,
        "url": "https://local.pokemon.jp/en/manhole/desc/227/?is_modal=1",
        "placeName": "36°38'03.2\"N 139°49'51.7\"E",
        "address": "Hei-255-1 Nissatomachi, Utsunomiya, Tochigi 321-2118, Japan",
        "imagePath": "image227.png"
    },
    {
        "index": 228,
        "url": "https://local.pokemon.jp/en/manhole/desc/228/?is_modal=1",
        "placeName": "36°34'20.2\"N 139°53'14.0\"E",
        "address": "2-chōme-9 Ōzo, Utsunomiya, Tochigi 320-0014, Japan",
        "imagePath": "image228.png"
    },
    {
        "index": 229,
        "url": "https://local.pokemon.jp/en/manhole/desc/229/?is_modal=1",
        "placeName": "26°14'45.4\"N 127°41'18.1\"E",
        "address": "4 Chome-14-1 Jitchaku, Urasoe, Okinawa 901-2122, Japan",
        "imagePath": "image229.png"
    },
    {
        "index": 230,
        "url": "https://local.pokemon.jp/en/manhole/desc/230/?is_modal=1",
        "placeName": "26°35'14.5\"N 127°59'08.7\"E",
        "address": "2-chōme-4 Gusuku, Nago, Okinawa 905-0013, Japan",
        "imagePath": "image230.png"
    },
    {
        "index": 231,
        "url": "https://local.pokemon.jp/en/manhole/desc/231/?is_modal=1",
        "placeName": "26°08'17.8\"N 127°39'40.8\"E",
        "address": "Japan, 〒901-0306 Okinawa, Itoman, Nishizakichō, 4-chōme−19",
        "imagePath": "image231.png"
    },
    {
        "index": 232,
        "url": "https://local.pokemon.jp/en/manhole/desc/232/?is_modal=1",
        "placeName": "26°41'30.1\"N 127°52'40.7\"E",
        "address": "Ishikawa, Motobu, Kunigami District, Okinawa 905-0206, Japan",
        "imagePath": "image232.png"
    },
    {
        "index": 233,
        "url": "https://local.pokemon.jp/en/manhole/desc/233/?is_modal=1",
        "placeName": "26°09'27.2\"N 127°39'22.0\"E",
        "address": "1-1162 Toyosaki, Tomigusuku, Okinawa 901-0225, Japan",
        "imagePath": "image233.png"
    },
    {
        "index": 234,
        "url": "https://local.pokemon.jp/en/manhole/desc/234/?is_modal=1",
        "placeName": "26°10'08.8\"N 127°49'37.5\"E",
        "address": "Kudeken-541 Chinen, Nanjo, Okinawa 901-1511, Japan",
        "imagePath": "image234.png"
    },
    {
        "index": 235,
        "url": "https://local.pokemon.jp/en/manhole/desc/235/?is_modal=1",
        "placeName": "24°20'14.7\"N 124°09'25.0\"E",
        "address": "1-13 Misakicho, Ishigaki, Okinawa 907-0012, Japan",
        "imagePath": "image235.png"
    },
    {
        "index": 236,
        "url": "https://local.pokemon.jp/en/manhole/desc/236/?is_modal=1",
        "placeName": "24°44'05.9\"N 125°15'47.1\"E",
        "address": "Japan, 〒906-0000 Okinawa, Miyakojima, Shimoji, Yonaha, 前浜1199-1 エスカーサ２階",
        "imagePath": "image236.png"
    },
    {
        "index": 237,
        "url": "https://local.pokemon.jp/en/manhole/desc/237/?is_modal=1",
        "placeName": "34°55'10.5\"N 136°10'12.7\"E",
        "address": "3311 520 Konancho Ryuboshi, Koka, Shiga 520-3311, Japan",
        "imagePath": "image237.png"
    },
    {
        "index": 238,
        "url": "https://local.pokemon.jp/en/manhole/desc/238/?is_modal=1",
        "placeName": "34°57'37.9\"N 136°09'54.6\"E",
        "address": "Minakuchicho Kitanaiki, Koka, Shiga 528-0051, Japan",
        "imagePath": "image238.png"
    },
    {
        "index": 239,
        "url": "https://local.pokemon.jp/en/manhole/desc/239/?is_modal=1",
        "placeName": "34°54'01.6\"N 136°13'45.8\"E",
        "address": "507-2 Kokacho Okubo, Koka, Shiga 520-3414, Japan",
        "imagePath": "image239.png"
    },
    {
        "index": 240,
        "url": "https://local.pokemon.jp/en/manhole/desc/240/?is_modal=1",
        "placeName": "34°43'06.6\"N 136°30'38.9\"E",
        "address": "7-4 Daimon, Tsu, Mie 514-0027, Japan",
        "imagePath": "image240.png"
    },
    {
        "index": 241,
        "url": "https://local.pokemon.jp/en/manhole/desc/241/?is_modal=1",
        "placeName": "34°57'08.7\"N 136°36'43.1\"E",
        "address": "Japan, 〒510-0886 Mie, Yokkaichi, Hinagahigashi, 1 Chome−3−21 中央緑地",
        "imagePath": "image241.png"
    },
    {
        "index": 242,
        "url": "https://local.pokemon.jp/en/manhole/desc/242/?is_modal=1",
        "placeName": "34°29'16.0\"N 136°42'25.6\"E",
        "address": "20 Honmachi, Ise, Mie 516-0074, Japan",
        "imagePath": "image242.png"
    },
    {
        "index": 243,
        "url": "https://local.pokemon.jp/en/manhole/desc/243/?is_modal=1",
        "placeName": "34°29'12.9\"N 136°50'41.4\"E",
        "address": "1-chōme-2383-42 Toba, Mie 517-0011, Japan",
        "imagePath": "image243.png"
    },
    {
        "index": 244,
        "url": "https://local.pokemon.jp/en/manhole/desc/244/?is_modal=1",
        "placeName": "33°53'30.3\"N 136°06'58.1\"E",
        "address": "1835-7 Kinomotocho, Kumano, Mie 519-4323, Japan",
        "imagePath": "image244.png"
    },
    {
        "index": 245,
        "url": "https://local.pokemon.jp/en/manhole/desc/245/?is_modal=1",
        "placeName": "34°16'33.6\"N 136°53'53.9\"E",
        "address": "Daiocho Nakiri, Shima, Mie 517-0603, Japan",
        "imagePath": "image245.png"
    },
    {
        "index": 246,
        "url": "https://local.pokemon.jp/en/manhole/desc/246/?is_modal=1",
        "placeName": "34°46'03.2\"N 136°07'48.3\"E",
        "address": "62 Uenomarunouchi, Iga, Mie 518-0873, Japan",
        "imagePath": "image246.png"
    },
    {
        "index": 247,
        "url": "https://local.pokemon.jp/en/manhole/desc/247/?is_modal=1",
        "placeName": "37°48'15.9\"N 140°24'39.3\"E",
        "address": "Tsukizaki Ozaso, Fukushima, 960-0251, Japan",
        "imagePath": "image247.png"
    },
    {
        "index": 248,
        "url": "https://local.pokemon.jp/en/manhole/desc/248/?is_modal=1",
        "placeName": "37°27'40.1\"N 139°55'38.8\"E",
        "address": "Kitamura Mondenmachi Oaza Tsutsumizawa, Aizuwakamatsu, Fukushima 965-0827, Japan",
        "imagePath": "image248.png"
    },
    {
        "index": 249,
        "url": "https://local.pokemon.jp/en/manhole/desc/249/?is_modal=1",
        "placeName": "37°23'48.4\"N 140°21'22.0\"E",
        "address": "1-chōme-5 Kaisei, Koriyama, Fukushima 963-8851, Japan",
        "imagePath": "image249.png"
    },
    {
        "index": 250,
        "url": "https://local.pokemon.jp/en/manhole/desc/250/?is_modal=1",
        "placeName": "37°12'20.6\"N 139°46'40.4\"E",
        "address": "Japan, 〒967-0004 Fukushima, Minamiaizu District, Minamiaizu, Tajima, Miyamotohigashi−３３−1",
        "imagePath": "image250.png"
    },
    {
        "index": 251,
        "url": "https://local.pokemon.jp/en/manhole/desc/251/?is_modal=1",
        "placeName": "37°31'41.5\"N 139°43'21.6\"E",
        "address": "Shitadairaotsu Yanaizu, Kawanuma District, Fukushima 969-7201, Japan",
        "imagePath": "image251.png"
    },
    {
        "index": 252,
        "url": "https://local.pokemon.jp/en/manhole/desc/252/?is_modal=1",
        "placeName": "37°19'32.5\"N 139°37'50.3\"E",
        "address": "Uenohara-1 Sagura, Showa, Onuma District, Fukushima 968-0215, Japan",
        "imagePath": "image252.png"
    },
    {
        "index": 253,
        "url": "https://local.pokemon.jp/en/manhole/desc/253/?is_modal=1",
        "placeName": "37°27'26.8\"N 141°01'36.9\"E",
        "address": "Japan, 〒979-1401 Fukushima, Futaba District, Futaba, Nakano, Takada−１番地１ 産業交流センタ 1F",
        "imagePath": "image253.png"
    },
    {
        "index": 254,
        "url": "https://local.pokemon.jp/en/manhole/desc/254/?is_modal=1",
        "placeName": "37°41'53.3\"N 140°44'08.0\"E",
        "address": "Fukaya, Iitate, Soma District, Fukushima 960-1802, Japan",
        "imagePath": "image254.png"
    },
    {
        "index": 255,
        "url": "https://local.pokemon.jp/en/manhole/desc/255/?is_modal=1",
        "placeName": "33°15'02.7\"N 130°17'56.2\"E",
        "address": "1-chōme-1 Matsubara, Saga, 840-0831, Japan",
        "imagePath": "image255.png"
    },
    {
        "index": 256,
        "url": "https://local.pokemon.jp/en/manhole/desc/256/?is_modal=1",
        "placeName": "33°14'54.0\"N 130°18'32.0\"E",
        "address": "2-chōme-11 Mizugae, Saga, 840-0054, Japan",
        "imagePath": "image256.png"
    },
    {
        "index": 257,
        "url": "https://local.pokemon.jp/en/manhole/desc/257/?is_modal=1",
        "placeName": "33°14'56.4\"N 130°18'01.1\"E",
        "address": "1-chōme-1 Jōnai, Saga, 840-0041, Japan",
        "imagePath": "image257.png"
    },
    {
        "index": 258,
        "url": "https://local.pokemon.jp/en/manhole/desc/258/?is_modal=1",
        "placeName": "39°23'31.3\"N 141°06'42.1\"E",
        "address": "1-chōme-2-21 Ōdōri, Hanamaki, Iwate 025-0092, Japan",
        "imagePath": "image258.png"
    },
    {
        "index": 259,
        "url": "https://local.pokemon.jp/en/manhole/desc/259/?is_modal=1",
        "placeName": "39°19'50.3\"N 141°31'43.9\"E",
        "address": "4-6 Chūōdōri, Tono City, Iwate 028-0523, Japan",
        "imagePath": "image259.png"
    },
    {
        "index": 260,
        "url": "https://local.pokemon.jp/en/manhole/desc/260/?is_modal=1",
        "placeName": "38°59'22.5\"N 141°15'19.0\"E",
        "address": "Higashiyamacho Nagasaka, Ichinoseki, Iwate 029-0302, Japan",
        "imagePath": "image260.png"
    },
    {
        "index": 261,
        "url": "https://local.pokemon.jp/en/manhole/desc/261/?is_modal=1",
        "placeName": "40°19'13.2\"N 141°19'07.9\"E",
        "address": "Yuda-41 Kintaichi, Ninohe, Iwate 028-5711, Japan",
        "imagePath": "image261.png"
    },
    {
        "index": 262,
        "url": "https://local.pokemon.jp/en/manhole/desc/262/?is_modal=1",
        "placeName": "39°52'46.5\"N 141°05'57.8\"E",
        "address": "Dai 2 Chiwari Obuke, Hachimantai, Iwate 028-7111, Japan",
        "imagePath": "image262.png"
    },
    {
        "index": 263,
        "url": "https://local.pokemon.jp/en/manhole/desc/263/?is_modal=1",
        "placeName": "39°44'02.4\"N 141°04'41.8\"E",
        "address": "Shimoukai, Takizawa, Iwate 020-0665, Japan",
        "imagePath": "image263.png"
    },
    {
        "index": 264,
        "url": "https://local.pokemon.jp/en/manhole/desc/264/?is_modal=1",
        "placeName": "39°58'06.9\"N 141°12'49.5\"E",
        "address": "Dai 10 Chiwari-121-20 Itsukaichi, Iwate, Iwate District, Iwate 028-4307, Japan",
        "imagePath": "image264.png"
    },
    {
        "index": 265,
        "url": "https://local.pokemon.jp/en/manhole/desc/265/?is_modal=1",
        "placeName": "39°33'16.7\"N 141°09'29.9\"E",
        "address": "1 Chome Shiwachuo Ekimae, Shiwa, Shiwa District, Iwate 028-3318, Japan",
        "imagePath": "image265.png"
    },
    {
        "index": 266,
        "url": "https://local.pokemon.jp/en/manhole/desc/266/?is_modal=1",
        "placeName": "39°18'52.1\"N 140°46'35.4\"E",
        "address": "Kawashiri, Nishiwaga, Waga District, Iwate 029-5512, Japan",
        "imagePath": "image266.png"
    },
    {
        "index": 267,
        "url": "https://local.pokemon.jp/en/manhole/desc/267/?is_modal=1",
        "placeName": "38°59'11.9\"N 141°06'29.4\"E",
        "address": "Osawa Hiraizumi, Nishiiwai District, Iwate 029-4102, Japan",
        "imagePath": "image267.png"
    },
    {
        "index": 268,
        "url": "https://local.pokemon.jp/en/manhole/desc/268/?is_modal=1",
        "placeName": "40°19'21.5\"N 141°22'54.4\"E",
        "address": "Dai 22 Chiwari-38-1 Hareyama, Karumai, Kunohe District, Iwate 028-6221, Japan",
        "imagePath": "image268.png"
    },
    {
        "index": 269,
        "url": "https://local.pokemon.jp/en/manhole/desc/269/?is_modal=1",
        "placeName": "40°14'54.7\"N 141°25'00.3\"E",
        "address": "Japan, 〒028-6506 Iwate, Kunohe District, Kunohe, Yamaya, 2-28-1道の駅おりつめ内",
        "imagePath": "image269.png"
    },
    {
        "index": 270,
        "url": "https://local.pokemon.jp/en/manhole/desc/270/?is_modal=1",
        "placeName": "40°12'31.9\"N 141°18'16.9\"E",
        "address": "Sunamori Ichinohe, Ninohe District, Iwate 028-5312, Japan",
        "imagePath": "image270.png"
    },
    {
        "index": 271,
        "url": "https://local.pokemon.jp/en/manhole/desc/271/?is_modal=1",
        "placeName": "34°43'15.5\"N 137°25'46.0\"E",
        "address": "Oana Oiwacho, Toyohashi, Aichi 441-3147, Japan",
        "imagePath": "image271.png"
    },
    {
        "index": 272,
        "url": "https://local.pokemon.jp/en/manhole/desc/272/?is_modal=1",
        "placeName": "34°45'45.4\"N 137°22'58.7\"E",
        "address": "Toyohashi, Aichi, Japan",
        "imagePath": "image272.png"
    },
    {
        "index": 273,
        "url": "https://local.pokemon.jp/en/manhole/desc/273/?is_modal=1",
        "placeName": "34°41'45.2\"N 137°24'50.2\"E",
        "address": "Ichinosawa-113-2 Higashinananechō, Toyohashi, Aichi 441-3201, Japan",
        "imagePath": "image273.png"
    },
    {
        "index": 274,
        "url": "https://local.pokemon.jp/en/manhole/desc/274/?is_modal=1",
        "placeName": "34°46'07.9\"N 137°23'37.8\"E",
        "address": "3 Chome-14-6 Hatchodori, Toyohashi, Aichi 440-0801, Japan",
        "imagePath": "image274.png"
    },
    {
        "index": 275,
        "url": "https://local.pokemon.jp/en/manhole/desc/275/?is_modal=1",
        "placeName": "36°42'56.2\"N 137°09'51.7\"E",
        "address": "Kurehamachi, Toyama, 930-0138, Japan",
        "imagePath": "image275.png"
    },
    {
        "index": 276,
        "url": "https://local.pokemon.jp/en/manhole/desc/276/?is_modal=1",
        "placeName": "36°42'35.5\"N 137°12'47.4\"E",
        "address": "5 Minatoirifunechō, Toyama, 930-0805, Japan",
        "imagePath": "image276.png"
    },
    {
        "index": 277,
        "url": "https://local.pokemon.jp/en/manhole/desc/277/?is_modal=1",
        "placeName": "36°41'32.4\"N 137°12'37.0\"E",
        "address": "3-chōme-1 Marunouchi, Toyama, 930-0085, Japan",
        "imagePath": "image277.png"
    },
    {
        "index": 278,
        "url": "https://local.pokemon.jp/en/manhole/desc/278/?is_modal=1",
        "placeName": "43°10'37.8\"N 141°26'54.7\"E",
        "address": "７７４番地１１ Tobetsubutou, Tobetsu, Ishikari District, Hokkaido 061-3773, Japan",
        "imagePath": "image278.png"
    },
    {
        "index": 279,
        "url": "https://local.pokemon.jp/en/manhole/desc/279/?is_modal=1",
        "placeName": "37°35'36.1\"N 140°27'50.4\"E",
        "address": "4-chōme-100 Adachigahara, Nihommatsu, Fukushima 964-0938, Japan",
        "imagePath": "image279.png"
    },
    {
        "index": 280,
        "url": "https://local.pokemon.jp/en/manhole/desc/280/?is_modal=1",
        "placeName": "37°45'38.9\"N 140°41'29.1\"E",
        "address": "Hoshizawa-9-1 Ryozenmachi Ishida, Date, Fukushima 960-0807, Japan",
        "imagePath": "image280.png"
    },
    {
        "index": 281,
        "url": "https://local.pokemon.jp/en/manhole/desc/281/?is_modal=1",
        "placeName": "37°39'22.1\"N 140°05'22.0\"E",
        "address": "Kengamine-1093-1055 Hibara, Kitashiobara, Yama District, Fukushima 969-2701, Japan",
        "imagePath": "image281.png"
    },
    {
        "index": 282,
        "url": "https://local.pokemon.jp/en/manhole/desc/282/?is_modal=1",
        "placeName": "37°32'17.2\"N 140°06'27.3\"E",
        "address": "Gohyakugari-1 Katada, Inawashiro, Yama District, Fukushima 969-3132, Japan",
        "imagePath": "image282.png"
    },
    {
        "index": 283,
        "url": "https://local.pokemon.jp/en/manhole/desc/283/?is_modal=1",
        "placeName": "37°27'18.6\"N 139°50'25.1\"E",
        "address": "Kō-甲４３７７ Miyabayashi, Aizumisato, Onuma District, Fukushima 969-6263, Japan",
        "imagePath": "image283.png"
    },
    {
        "index": 284,
        "url": "https://local.pokemon.jp/en/manhole/desc/284/?is_modal=1",
        "placeName": "37°08'23.6\"N 140°09'16.8\"E",
        "address": "Orikuchihara-146 Kumakura, Nishigo, Nishishirakawa District, Fukushima 961-8091, Japan",
        "imagePath": "image284.png"
    },
    {
        "index": 285,
        "url": "https://local.pokemon.jp/en/manhole/desc/285/?is_modal=1",
        "placeName": "37°13'06.3\"N 140°20'08.3\"E",
        "address": "64 Ōike, Yabuki, Nishishirakawa District, Fukushima 969-0238, Japan",
        "imagePath": "image285.png"
    },
    {
        "index": 286,
        "url": "https://local.pokemon.jp/en/manhole/desc/286/?is_modal=1",
        "placeName": "37°05'34.4\"N 140°31'45.5\"E",
        "address": "Hiradate Taguchi, Furudono, Ishikawa District, Fukushima 963-8306, Japan",
        "imagePath": "image286.png"
    },
    {
        "index": 287,
        "url": "https://local.pokemon.jp/en/manhole/desc/287/?is_modal=1",
        "placeName": "37°26'35.9\"N 140°29'28.5\"E",
        "address": "10 Kitamachi, Miharu, Tamura District, Fukushima 963-7751, Japan",
        "imagePath": "image287.png"
    },
    {
        "index": 288,
        "url": "https://local.pokemon.jp/en/manhole/desc/288/?is_modal=1",
        "placeName": "33°57'29.6\"N 130°56'55.3\"E",
        "address": "6-18 Amidaijicho, Shimonoseki, Yamaguchi 750-0003, Japan",
        "imagePath": "image288.png"
    },
    {
        "index": 289,
        "url": "https://local.pokemon.jp/en/manhole/desc/289/?is_modal=1",
        "placeName": "33°57'16.7\"N 130°56'30.0\"E",
        "address": "6 Arukapōto, Shimonoseki, Yamaguchi 750-0036, Japan",
        "imagePath": "image289.png"
    },
    {
        "index": 290,
        "url": "https://local.pokemon.jp/en/manhole/desc/290/?is_modal=1",
        "placeName": "33°56'02.7\"N 130°55'51.3\"E",
        "address": "Hikoshima, Shimonoseki, Yamaguchi 750-0000, Japan",
        "imagePath": "image290.png"
    },
    {
        "index": 291,
        "url": "https://local.pokemon.jp/en/manhole/desc/291/?is_modal=1",
        "placeName": "33°56'07.7\"N 130°55'46.9\"E",
        "address": "Japan, 〒750-0000 Yamaguchi, Shimonoseki, Hikoshima, 船島",
        "imagePath": "image291.png"
    },
    {
        "index": 292,
        "url": "https://local.pokemon.jp/en/manhole/desc/292/?is_modal=1",
        "placeName": "34°51'34.0\"N 136°26'50.9\"E",
        "address": "7-7 Wakayamachō, Kameyama, Mie 519-0151, Japan",
        "imagePath": "image292.png"
    },
    {
        "index": 293,
        "url": "https://local.pokemon.jp/en/manhole/desc/293/?is_modal=1",
        "placeName": "35°02'14.2\"N 136°39'31.9\"E",
        "address": "2281-6 Kaki, Asahi, Mie District, Mie 510-8103, Japan",
        "imagePath": "image293.png"
    },
    {
        "index": 294,
        "url": "https://local.pokemon.jp/en/manhole/desc/294/?is_modal=1",
        "placeName": "34°32'23.9\"N 136°37'06.6\"E",
        "address": "2811 Saikū, Meiwa, Taki District, Mie 515-0321, Japan",
        "imagePath": "image294.png"
    },
    {
        "index": 295,
        "url": "https://local.pokemon.jp/en/manhole/desc/295/?is_modal=1",
        "placeName": "34°21'21.6\"N 136°20'51.6\"E",
        "address": "993 Sono, Odai, Mie 519-2513, Japan",
        "imagePath": "image295.png"
    },
    {
        "index": 296,
        "url": "https://local.pokemon.jp/en/manhole/desc/296/?is_modal=1",
        "placeName": "34°25'55.4\"N 136°37'52.8\"E",
        "address": "Watarai, Watarai District, Mie, Japan",
        "imagePath": "image296.png"
    },
    {
        "index": 297,
        "url": "https://local.pokemon.jp/en/manhole/desc/297/?is_modal=1",
        "placeName": "33°46'11.1\"N 136°01'43.1\"E",
        "address": "568-7 Ida, Kiho, Minamimuro District, Mie 519-5711, Japan",
        "imagePath": "image297.png"
    },
    {
        "index": 298,
        "url": "https://local.pokemon.jp/en/manhole/desc/298/?is_modal=1",
        "placeName": "34°14'50.6\"N 133°55'58.0\"E",
        "address": "253-7 Kayahara, Ayagawa, Ayauta District, Kagawa 761-2304, Japan",
        "imagePath": "image298.png"
    },
    {
        "index": 299,
        "url": "https://local.pokemon.jp/en/manhole/desc/299/?is_modal=1",
        "placeName": "Not Available",
        "address": "Not Available",
        "imagePath": "image299.png"
    },
    {
        "index": 300,
        "url": "https://local.pokemon.jp/en/manhole/desc/300/?is_modal=1",
        "placeName": "35°32'02.2\"N 134°13'28.1\"E",
        "address": "1157-1 Hamasaka, Tottori, 680-0001, Japan",
        "imagePath": "image300.png"
    },
    {
        "index": 301,
        "url": "https://local.pokemon.jp/en/manhole/desc/301/?is_modal=1",
        "placeName": "36°33'33.0\"N 136°39'42.9\"E",
        "address": "Japan, 〒920-0963 Ishikawa, Kanazawa, Dewamachi, 3",
        "imagePath": "image301.png"
    },
    {
        "index": 302,
        "url": "https://local.pokemon.jp/en/manhole/desc/302/?is_modal=1",
        "placeName": "42°18'49.8\"N 140°58'26.4\"E",
        "address": "2-chōme-2-11 Honchō, Muroran, Hokkaido 051-0015, Japan",
        "imagePath": "image302.png"
    },
    {
        "index": 303,
        "url": "https://local.pokemon.jp/en/manhole/desc/303/?is_modal=1",
        "placeName": "43°45'12.9\"N 143°30'02.1\"E",
        "address": "1-4 Rubeshibecho Matsuyama, Kitami, Hokkaido 091-0153, Japan",
        "imagePath": "image303.png"
    },
    {
        "index": 304,
        "url": "https://local.pokemon.jp/en/manhole/desc/304/?is_modal=1",
        "placeName": "43°30'11.5\"N 142°00'21.3\"E",
        "address": "72-2 Nakamura, Utashinai, Hokkaido 073-0406, Japan",
        "imagePath": "image304.png"
    },
    {
        "index": 305,
        "url": "https://local.pokemon.jp/en/manhole/desc/305/?is_modal=1",
        "placeName": "41°40'40.9\"N 140°26'08.1\"E",
        "address": "338-14 Honchō, Kikonai, Kamiiso District, Hokkaido 049-0422, Japan",
        "imagePath": "image305.png"
    },
    {
        "index": 306,
        "url": "https://local.pokemon.jp/en/manhole/desc/306/?is_modal=1",
        "placeName": "45°19'45.1\"N 142°10'38.2\"E",
        "address": "214-7 Hamaonishibetsu, Sarufutsu, Soya District, Hokkaido 098-6222, Japan",
        "imagePath": "image306.png"
    },
    {
        "index": 307,
        "url": "https://local.pokemon.jp/en/manhole/desc/307/?is_modal=1",
        "placeName": "43°50'11.2\"N 144°06'21.2\"E",
        "address": "3 Chome Shinmachi, Bihoro, Abashiri District, Hokkaido 092-0015, Japan",
        "imagePath": "image307.png"
    },
    {
        "index": 308,
        "url": "https://local.pokemon.jp/en/manhole/desc/308/?is_modal=1",
        "placeName": "34°37'34.4\"N 136°05'20.1\"E",
        "address": "Asahimachi, Nabari, Mie 518-0721, Japan",
        "imagePath": "image308.png"
    },
    {
        "index": 309,
        "url": "https://local.pokemon.jp/en/manhole/desc/309/?is_modal=1",
        "placeName": "35°04'32.1\"N 136°43'54.5\"E",
        "address": "48-3 Nishitaiganji, Kisosaki, Kuwana District, Mie 498-0807, Japan",
        "imagePath": "image309.png"
    },
    {
        "index": 310,
        "url": "https://local.pokemon.jp/en/manhole/desc/310/?is_modal=1",
        "placeName": "35°04'25.7\"N 136°34'52.0\"E",
        "address": "1644 Kitaōyashiro, Toin, Inabe District, Mie 511-0257, Japan",
        "imagePath": "image310.png"
    },
    {
        "index": 311,
        "url": "https://local.pokemon.jp/en/manhole/desc/311/?is_modal=1",
        "placeName": "35°27'03.7\"N 139°38'39.0\"E",
        "address": "1-chōme-1 Shinkō, Naka Ward, Yokohama, Kanagawa 231-0001, Japan",
        "imagePath": "image311.png"
    },
    {
        "index": 312,
        "url": "https://local.pokemon.jp/en/manhole/desc/312/?is_modal=1",
        "placeName": "35°26'37.4\"N 139°39'03.3\"E",
        "address": "Yokohama Marine Tower, 15 Yamashitachō, Naka Ward, Yokohama, Kanagawa 231-0023, Japan",
        "imagePath": "image312.png"
    },
    {
        "index": 313,
        "url": "https://local.pokemon.jp/en/manhole/desc/313/?is_modal=1",
        "placeName": "35°27'31.3\"N 139°38'18.0\"E",
        "address": "1 Chome-1-地先 Minatomirai, Nishi Ward, Yokohama, Kanagawa 220-0012, Japan",
        "imagePath": "image313.png"
    },
    {
        "index": 314,
        "url": "https://local.pokemon.jp/en/manhole/desc/314/?is_modal=1",
        "placeName": "35°27'12.0\"N 139°37'54.1\"E",
        "address": "1 Chome, Yokohama, Kanagawa, Japan",
        "imagePath": "image314.png"
    },
    {
        "index": 315,
        "url": "https://local.pokemon.jp/en/manhole/desc/315/?is_modal=1",
        "placeName": "33°30'48.0\"N 130°30'54.6\"E",
        "address": "4 Chome-6 Kanzeonji, Dazaifu, Fukuoka 818-0101, Japan",
        "imagePath": "image315.png"
    },
    {
        "index": 316,
        "url": "https://local.pokemon.jp/en/manhole/desc/316/?is_modal=1",
        "placeName": "33°31'09.7\"N 130°31'52.9\"E",
        "address": "2-chōme-5 Saifu, Dazaifu, Fukuoka 818-0117, Japan",
        "imagePath": "image316.png"
    },
    {
        "index": 317,
        "url": "https://local.pokemon.jp/en/manhole/desc/317/?is_modal=1",
        "placeName": "33°30'18.7\"N 130°30'59.7\"E",
        "address": "3-chōme-13 Suzaku, Dazaifu, Fukuoka 818-0103, Japan",
        "imagePath": "image317.png"
    },
    {
        "index": 318,
        "url": "https://local.pokemon.jp/en/manhole/desc/318/?is_modal=1",
        "placeName": "39°45'09.5\"N 140°03'40.7\"E",
        "address": "1 Chome Tsuchizakiminatonishi, Akita, 011-0945, Japan",
        "imagePath": "image318.png"
    },
    {
        "index": 319,
        "url": "https://local.pokemon.jp/en/manhole/desc/319/?is_modal=1",
        "placeName": "39°17'36.8\"N 140°32'45.4\"E",
        "address": "Japan, 〒013-0064 Akita, Yokote, Akasaka, Tomigasawa−６２−62-46",
        "imagePath": "image319.png"
    },
    {
        "index": 320,
        "url": "https://local.pokemon.jp/en/manhole/desc/320/?is_modal=1",
        "placeName": "39°52'55.2\"N 139°50'51.8\"E",
        "address": "Japan, 〒010-0511 Akita, Oga, Funagawaminato Funagawa, Shinhamacho−１−19",
        "imagePath": "image320.png"
    },
    {
        "index": 321,
        "url": "https://local.pokemon.jp/en/manhole/desc/321/?is_modal=1",
        "placeName": "40°10'52.4\"N 140°47'07.7\"E",
        "address": "Shindenmachi-11-4 Hanawa, Kazuno, Akita 018-5201, Japan",
        "imagePath": "image321.png"
    },
    {
        "index": 322,
        "url": "https://local.pokemon.jp/en/manhole/desc/322/?is_modal=1",
        "placeName": "39°41'60.0\"N 140°39'45.5\"E",
        "address": "Japan, 〒014-1203 Akita, Semboku, Tazawakokata, ヨテコ沢4",
        "imagePath": "image322.png"
    },
    {
        "index": 323,
        "url": "https://local.pokemon.jp/en/manhole/desc/323/?is_modal=1",
        "placeName": "39°16'52.0\"N 141°07'21.9\"E",
        "address": "1-chōme-1 Kawagishi, Kitakami, Iwate 024-0032, Japan",
        "imagePath": "image323.png"
    },
    {
        "index": 324,
        "url": "https://local.pokemon.jp/en/manhole/desc/324/?is_modal=1",
        "placeName": "43°35'31.1\"N 142°27'49.4\"E",
        "address": "1-chōme-9-21 Motomachi, Biei, Kamikawa District, Hokkaido 071-0208, Japan",
        "imagePath": "image324.png"
    },
    {
        "index": 325,
        "url": "https://local.pokemon.jp/en/manhole/desc/325/?is_modal=1",
        "placeName": "33°50'27.8\"N 132°46'12.9\"E",
        "address": "Ōkaido, Ōkaidō, Matsuyama, Ehime 790-0004, Japan",
        "imagePath": "image325.png"
    },
    {
        "index": 326,
        "url": "https://local.pokemon.jp/en/manhole/desc/326/?is_modal=1",
        "placeName": "33°50'39.3\"N 132°44'26.8\"E",
        "address": "1 Chome-1490 Asahigaoka, Matsuyama, Ehime 790-0062, Japan",
        "imagePath": "image326.png"
    },
    {
        "index": 327,
        "url": "https://local.pokemon.jp/en/manhole/desc/327/?is_modal=1",
        "placeName": "34°13'26.8\"N 134°38'10.3\"E",
        "address": "Ōge-82-100 Narutochō Tosadomariura, Naruto, Tokushima 772-0053, Japan",
        "imagePath": "image327.png"
    },
    {
        "index": 328,
        "url": "https://local.pokemon.jp/en/manhole/desc/328/?is_modal=1",
        "placeName": "34°10'55.0\"N 134°36'06.2\"E",
        "address": "Kitahama Muyacho Saita, Naruto, Tokushima 772-0002, Japan",
        "imagePath": "image328.png"
    },
    {
        "index": 329,
        "url": "https://local.pokemon.jp/en/manhole/desc/329/?is_modal=1",
        "placeName": "34°10'05.1\"N 134°36'58.9\"E",
        "address": "Japan, 〒772-0017 Tokushima, Naruto, Muyacho Tateiwa, Shimai−６１",
        "imagePath": "image329.png"
    },
    {
        "index": 330,
        "url": "https://local.pokemon.jp/en/manhole/desc/330/?is_modal=1",
        "placeName": "34°49'23.0\"N 136°35'04.6\"E",
        "address": "3-chōme-10 Jike, Suzuka, Mie 510-0254, Japan",
        "imagePath": "image330.png"
    },
    {
        "index": 331,
        "url": "https://local.pokemon.jp/en/manhole/desc/331/?is_modal=1",
        "placeName": "35°01'02.3\"N 136°39'35.4\"E",
        "address": "284-5 Toyoda, Kawagoe, Mie District, Mie 510-8122, Japan",
        "imagePath": "image331.png"
    },
    {
        "index": 332,
        "url": "https://local.pokemon.jp/en/manhole/desc/332/?is_modal=1",
        "placeName": "34°27'58.0\"N 136°33'13.5\"E",
        "address": "992 Gokatsura, Taki, Taki District, Mie 519-2174, Japan",
        "imagePath": "image332.png"
    },
    {
        "index": 333,
        "url": "https://local.pokemon.jp/en/manhole/desc/333/?is_modal=1",
        "placeName": "34°34'43.2\"N 136°31'11.4\"E",
        "address": "772-11 Kawaimachi, Matsusaka, Mie 515-0818, Japan",
        "imagePath": "image333.png"
    },
    {
        "index": 334,
        "url": "https://local.pokemon.jp/en/manhole/desc/334/?is_modal=1",
        "placeName": "34°28'04.7\"N 136°35'15.7\"E",
        "address": "Hara, Tamaki, Watarai District, Mie 519-0438, Japan",
        "imagePath": "image334.png"
    },
    {
        "index": 335,
        "url": "https://local.pokemon.jp/en/manhole/desc/335/?is_modal=1",
        "placeName": "34°16'08.4\"N 136°32'56.1\"E",
        "address": "Michiyukugama, Minamiise, Watarai District, Mie 516-1303, Japan",
        "imagePath": "image335.png"
    },
    {
        "index": 336,
        "url": "https://local.pokemon.jp/en/manhole/desc/336/?is_modal=1",
        "placeName": "36°03'24.4\"N 136°29'31.2\"E",
        "address": "Japan, 〒911-0831 Fukui, Katsuyama, Osowacho Hishima, 勝山駅前",
        "imagePath": "image336.png"
    },
    {
        "index": 337,
        "url": "https://local.pokemon.jp/en/manhole/desc/337/?is_modal=1",
        "placeName": "36°12'56.2\"N 136°14'03.2\"E",
        "address": "1-chōme-11 Harumiya, Awara, Fukui 919-0632, Japan",
        "imagePath": "image337.png"
    },
    {
        "index": 338,
        "url": "https://local.pokemon.jp/en/manhole/desc/338/?is_modal=1",
        "placeName": "35°53'43.0\"N 136°11'55.4\"E",
        "address": "Echizen, Fukui, Japan",
        "imagePath": "image338.png"
    },
    {
        "index": 339,
        "url": "https://local.pokemon.jp/en/manhole/desc/339/?is_modal=1",
        "placeName": "36°04'47.6\"N 136°23'57.5\"E",
        "address": "2-21 Shimizu, Eiheiji, Yoshida District, Fukui 910-1312, Japan",
        "imagePath": "image339.png"
    },
    {
        "index": 340,
        "url": "https://local.pokemon.jp/en/manhole/desc/340/?is_modal=1",
        "placeName": "35°29'34.6\"N 135°32'44.0\"E",
        "address": "Japan, 〒919-2228 Fukui, Oi District, Takahama, Shiodo, 青葉山の展望を楽しむみち",
        "imagePath": "image340.png"
    },
    {
        "index": 341,
        "url": "https://local.pokemon.jp/en/manhole/desc/341/?is_modal=1",
        "placeName": "35°36'16.2\"N 135°56'12.8\"E",
        "address": "Mihama, Mikata District, Fukui, Japan",
        "imagePath": "image341.png"
    },
    {
        "index": 342,
        "url": "https://local.pokemon.jp/en/manhole/desc/342/?is_modal=1",
        "placeName": "34°13'48.1\"N 135°10'17.1\"E",
        "address": "24 Shichibanchō, Wakayama, 640-8156, Japan",
        "imagePath": "image342.png"
    },
    {
        "index": 343,
        "url": "https://local.pokemon.jp/en/manhole/desc/343/?is_modal=1",
        "placeName": "34°12'43.5\"N 135°34'59.0\"E",
        "address": "Koyasan, Koya, Ito District, Wakayama 648-0211, Japan",
        "imagePath": "image343.png"
    },
    {
        "index": 344,
        "url": "https://local.pokemon.jp/en/manhole/desc/344/?is_modal=1",
        "placeName": "33°40'32.8\"N 135°23'13.4\"E",
        "address": "1, Katata, Shirahama, Nishimuro District, Wakayama 649-2201, Japan",
        "imagePath": "image344.png"
    },
    {
        "index": 345,
        "url": "https://local.pokemon.jp/en/manhole/desc/345/?is_modal=1",
        "placeName": "33°31'04.8\"N 135°49'23.1\"E",
        "address": "Japan, 〒649-4122 Wakayama, Higashimuro District, Kushimoto, Nishimukai, 串本町コミュニティセンター",
        "imagePath": "image345.png"
    },
    {
        "index": 346,
        "url": "https://local.pokemon.jp/en/manhole/desc/346/?is_modal=1",
        "placeName": "33°40'08.3\"N 135°54'10.5\"E",
        "address": "Ichinono, Nachikatsuura, Higashimuro District, Wakayama 649-5302, Japan",
        "imagePath": "image346.png"
    },
    {
        "index": 347,
        "url": "https://local.pokemon.jp/en/manhole/desc/347/?is_modal=1",
        "placeName": "Not Available",
        "address": "Not Available",
        "imagePath": "image347.png"
    },
    {
        "index": 348,
        "url": "https://local.pokemon.jp/en/manhole/desc/348/?is_modal=1",
        "placeName": "Not Available",
        "address": "Not Available",
        "imagePath": "image348.png"
    },
    {
        "index": 349,
        "url": "https://local.pokemon.jp/en/manhole/desc/349/?is_modal=1",
        "placeName": "Not Available",
        "address": "Not Available",
        "imagePath": "image349.png"
    },
    {
        "index": 350,
        "url": "https://local.pokemon.jp/en/manhole/desc/350/?is_modal=1",
        "placeName": "Not Available",
        "address": "Not Available",
        "imagePath": "image350.png"
    }
]